{
  "type": "FeatureCollection",
  "generator": "overpass-turbo",
  "copyright": "The data included in this document is from www.openstreetmap.org. The data is made available under ODbL.",
  "timestamp": "2025-08-06T15:41:30Z",
  "features": [
    {
      "type": "Feature",
      "properties": {
        "@id": "node/29391348",
        "name": "Hotel Sukajadi",
        "tourism": "hotel"
      },
      "geometry": {
        "type": "Point",
        "coordinates": [
          107.5970895,
          -6.8862096
        ]
      },
      "id": "node/29391348"
    },
    {
      "type": "Feature",
      "properties": {
        "@id": "node/29392374",
        "name": "Imperium",
        "tourism": "hotel"
      },
      "geometry": {
        "type": "Point",
        "coordinates": [
          107.6009357,
          -6.9050087
        ]
      },
      "id": "node/29392374"
    },
    {
      "type": "Feature",
      "properties": {
        "@id": "node/32042016",
        "created_by": "JOSM",
        "name": "Topaz",
        "tourism": "hotel"
      },
      "geometry": {
        "type": "Point",
        "coordinates": [
          107.5841016,
          -6.8927539
        ]
      },
      "id": "node/32042016"
    },
    {
      "type": "Feature",
      "properties": {
        "@id": "node/32519052",
        "building": "yes",
        "building:levels": "5",
        "building:roof": "tile",
        "building:structure": "confined_masonry",
        "building:use": "accommodation",
        "building:walls": "brick",
        "name": "Geulis",
        "tourism": "hotel"
      },
      "geometry": {
        "type": "Point",
        "coordinates": [
          107.61281,
          -6.8914029
        ]
      },
      "id": "node/32519052"
    },
    {
      "type": "Feature",
      "properties": {
        "@id": "node/32520353",
        "addr:housenumber": "81",
        "addr:street": "Jalan Asia Afrika",
        "name": "Grand Hotel Preanger",
        "tourism": "hotel",
        "website": "https://aerowisatahotels.com/",
        "wikipedia": "nl:Grand Hotel Preanger"
      },
      "geometry": {
        "type": "Point",
        "coordinates": [
          107.611654,
          -6.9213431
        ]
      },
      "id": "node/32520353"
    },
    {
      "type": "Feature",
      "properties": {
        "@id": "way/119439014",
        "building": "yes",
        "building:levels": "6",
        "building:roof": "concrete",
        "building:structure": "reinforced_masonry",
        "building:use": "commercial",
        "building:walls": "brick",
        "name": "Hotel Scarlet Dago",
        "stars": "5",
        "tourism": "hotel",
        "@geometry": "center"
      },
      "geometry": {
        "type": "Point",
        "coordinates": [
          107.6121068,
          -6.8852565
        ]
      },
      "id": "way/119439014"
    },
    {
      "type": "Feature",
      "properties": {
        "@id": "way/119445946",
        "addr:city": "Bandung",
        "addr:street": "Jalan Ir. H. Juanda",
        "building": "yes",
        "building:levels": "4",
        "building:roof": "concrete",
        "building:structure": "reinforced_masonry",
        "building:use": "commercial",
        "building:walls": "brick",
        "name": "The Palais Dago",
        "stars": "2",
        "tourism": "hotel",
        "@geometry": "center"
      },
      "geometry": {
        "type": "Point",
        "coordinates": [
          107.6133207,
          -6.8962861
        ]
      },
      "id": "way/119445946"
    },
    {
      "type": "Feature",
      "properties": {
        "@id": "way/119549570",
        "addr:city": "Bandung",
        "addr:street": "Jalan Merdeka",
        "brand": "Aryaduta",
        "building": "yes",
        "building:levels": "15",
        "building:roof": "concrete",
        "building:structure": "reinforced_masonry",
        "building:use": "accommodation",
        "building:walls": "brick",
        "check_date": "2024-06-24",
        "name": "Hotel Aryaduta",
        "rooms": "254",
        "start_date": "1997",
        "tourism": "hotel",
        "@geometry": "center"
      },
      "geometry": {
        "type": "Point",
        "coordinates": [
          107.6118246,
          -6.9093756
        ]
      },
      "id": "way/119549570"
    },
    {
      "type": "Feature",
      "properties": {
        "@id": "way/119549571",
        "building": "hotel",
        "building:roof": "concrete",
        "building:structure": "reinforced_masonry",
        "building:use": "commercial",
        "building:walls": "brick",
        "name": "Hotel The 101",
        "tourism": "hotel",
        "@geometry": "center"
      },
      "geometry": {
        "type": "Point",
        "coordinates": [
          107.6102339,
          -6.9063726
        ]
      },
      "id": "way/119549571"
    },
    {
      "type": "Feature",
      "properties": {
        "@id": "way/119756601",
        "building": "yes",
        "building:levels": "3",
        "building:roof": "concrete",
        "building:structure": "reinforced_masonry",
        "building:use": "accommodation",
        "building:walls": "brick",
        "check_date": "2024-03-11",
        "name": "Santika Hotel",
        "stars": "3",
        "tourism": "hotel",
        "@geometry": "center"
      },
      "geometry": {
        "type": "Point",
        "coordinates": [
          107.6120231,
          -6.9075937
        ]
      },
      "id": "way/119756601"
    },
    {
      "type": "Feature",
      "properties": {
        "@id": "way/119763516",
        "building": "yes",
        "building:levels": "5",
        "building:roof": "asbestos",
        "building:structure": "reinforced_masonry",
        "building:use": "accommodation",
        "building:walls": "brick",
        "name": "Posters Hotel",
        "tourism": "hotel",
        "@geometry": "center"
      },
      "geometry": {
        "type": "Point",
        "coordinates": [
          107.6384929,
          -6.8982098
        ]
      },
      "id": "way/119763516"
    },
    {
      "type": "Feature",
      "properties": {
        "@id": "way/120331569",
        "building": "yes",
        "building:levels": "1",
        "building:roof": "tile",
        "building:structure": "reinforced_masonry",
        "building:use": "accommodation",
        "building:walls": "brick",
        "name": "Wisma Pradana Bank BTN",
        "tourism": "guest_house",
        "@geometry": "center"
      },
      "geometry": {
        "type": "Point",
        "coordinates": [
          107.613961,
          -6.8880782
        ]
      },
      "id": "way/120331569"
    },
    {
      "type": "Feature",
      "properties": {
        "@id": "way/120339378",
        "building": "yes",
        "building:levels": "4",
        "building:roof": "concrete",
        "building:structure": "reinforced_masonry",
        "building:use": "accommodation",
        "building:walls": "brick",
        "name": "Amaris Hotel",
        "tourism": "hotel",
        "@geometry": "center"
      },
      "geometry": {
        "type": "Point",
        "coordinates": [
          107.603809,
          -6.8902546
        ]
      },
      "id": "way/120339378"
    },
    {
      "type": "Feature",
      "properties": {
        "@id": "way/152648494",
        "building": "university",
        "building:colour": "grey",
        "building:levels": "6",
        "building:part": "yes",
        "name": "Isola Resort UPI",
        "roof:colour": "grey",
        "tourism": "hotel",
        "@geometry": "center"
      },
      "geometry": {
        "type": "Point",
        "coordinates": [
          107.5897381,
          -6.8623979
        ]
      },
      "id": "way/152648494"
    },
    {
      "type": "Feature",
      "properties": {
        "@id": "way/152934589",
        "building": "yes",
        "name": "Rossan Villa",
        "source": "Agoda",
        "tourism": "hotel",
        "@geometry": "center"
      },
      "geometry": {
        "type": "Point",
        "coordinates": [
          107.5907805,
          -6.8496448
        ]
      },
      "id": "way/152934589"
    },
    {
      "type": "Feature",
      "properties": {
        "@id": "way/152934590",
        "name": "GH Universal Hotel",
        "tourism": "hotel",
        "@geometry": "center"
      },
      "geometry": {
        "type": "Point",
        "coordinates": [
          107.598007,
          -6.8505181
        ]
      },
      "id": "way/152934590"
    },
    {
      "type": "Feature",
      "properties": {
        "@id": "way/152936381",
        "addr:city": "Bandung",
        "addr:housenumber": "191",
        "addr:postcode": "40153",
        "addr:street": "Jalan Dr. Setiabudi",
        "building": "hotel",
        "name": "Banana Inn",
        "tourism": "hotel",
        "@geometry": "center"
      },
      "geometry": {
        "type": "Point",
        "coordinates": [
          107.5930743,
          -6.8669129
        ]
      },
      "id": "way/152936381"
    },
    {
      "type": "Feature",
      "properties": {
        "@id": "way/152991392",
        "name": "Hotel Karangsetra",
        "tourism": "hotel",
        "@geometry": "center"
      },
      "geometry": {
        "type": "Point",
        "coordinates": [
          107.5955647,
          -6.8829107
        ]
      },
      "id": "way/152991392"
    },
    {
      "type": "Feature",
      "properties": {
        "@id": "way/153285183",
        "name": "Pondok Sany Rosa",
        "tourism": "hotel",
        "@geometry": "center"
      },
      "geometry": {
        "type": "Point",
        "coordinates": [
          107.6026103,
          -6.8825427
        ]
      },
      "id": "way/153285183"
    },
    {
      "type": "Feature",
      "properties": {
        "@id": "way/153883975",
        "building": "yes",
        "name": "Fabu Hotel",
        "tourism": "hotel",
        "@geometry": "center"
      },
      "geometry": {
        "type": "Point",
        "coordinates": [
          107.6009164,
          -6.9158755
        ]
      },
      "id": "way/153883975"
    },
    {
      "type": "Feature",
      "properties": {
        "@id": "way/154066275",
        "addr:city": "Bandung",
        "addr:housenumber": "125",
        "addr:postcode": "40162",
        "addr:street": "Jalan Doktor Djunjunan",
        "building": "yes",
        "name": "Hotel Nyland",
        "tourism": "hotel",
        "@geometry": "center"
      },
      "geometry": {
        "type": "Point",
        "coordinates": [
          107.5873115,
          -6.8949313
        ]
      },
      "id": "way/154066275"
    },
    {
      "type": "Feature",
      "properties": {
        "@id": "way/154217968",
        "addr:city": "Bandung",
        "building": "yes",
        "building:levels": "4",
        "internet_access": "wlan",
        "internet_access:fee": "customers",
        "name": "Bali World Hotel",
        "tourism": "hotel",
        "@geometry": "center"
      },
      "geometry": {
        "type": "Point",
        "coordinates": [
          107.6632349,
          -6.9384114
        ]
      },
      "id": "way/154217968"
    },
    {
      "type": "Feature",
      "properties": {
        "@id": "way/154435842",
        "name": "Ahadiat Hotel & Bungalow",
        "tourism": "hotel",
        "@geometry": "center"
      },
      "geometry": {
        "type": "Point",
        "coordinates": [
          107.5882717,
          -6.8803495
        ]
      },
      "id": "way/154435842"
    },
    {
      "type": "Feature",
      "properties": {
        "@id": "way/155189909",
        "name": "Casa D'Ladera",
        "tourism": "hotel",
        "@geometry": "center"
      },
      "geometry": {
        "type": "Point",
        "coordinates": [
          107.5963787,
          -6.861819
        ]
      },
      "id": "way/155189909"
    },
    {
      "type": "Feature",
      "properties": {
        "@id": "way/155190112",
        "name": "Ponty",
        "tourism": "hotel",
        "@geometry": "center"
      },
      "geometry": {
        "type": "Point",
        "coordinates": [
          107.5952227,
          -6.8603174
        ]
      },
      "id": "way/155190112"
    },
    {
      "type": "Feature",
      "properties": {
        "@id": "way/155190113",
        "addr:city": "Bandung, Jawa Barat",
        "addr:housenumber": "266",
        "addr:postcode": "40143",
        "addr:street": "Jalan Dr. Setiabudi",
        "building": "yes",
        "internet_access": "wlan",
        "name": "Setiabudhi Indah Hotel",
        "tourism": "hotel",
        "@geometry": "center"
      },
      "geometry": {
        "type": "Point",
        "coordinates": [
          107.5958651,
          -6.8613703
        ]
      },
      "id": "way/155190113"
    },
    {
      "type": "Feature",
      "properties": {
        "@id": "way/155228864",
        "name": "Wisma Angkasa",
        "tourism": "motel",
        "@geometry": "center"
      },
      "geometry": {
        "type": "Point",
        "coordinates": [
          107.5950977,
          -6.8735779
        ]
      },
      "id": "way/155228864"
    },
    {
      "type": "Feature",
      "properties": {
        "@id": "way/155777651",
        "building": "yes",
        "name": "Nalendra",
        "tourism": "hotel",
        "@geometry": "center"
      },
      "geometry": {
        "type": "Point",
        "coordinates": [
          107.6040187,
          -6.8853573
        ]
      },
      "id": "way/155777651"
    },
    {
      "type": "Feature",
      "properties": {
        "@id": "way/182847335",
        "addr:city": "Bandung",
        "addr:country": "ID",
        "addr:housenumber": "16",
        "addr:postcode": "40114",
        "addr:street": "Jalan Citarum",
        "building": "yes",
        "building:levels": "4",
        "name": "Citarum Hotel",
        "source": "survery",
        "tourism": "hotel",
        "@geometry": "center"
      },
      "geometry": {
        "type": "Point",
        "coordinates": [
          107.623114,
          -6.9044332
        ]
      },
      "id": "way/182847335"
    },
    {
      "type": "Feature",
      "properties": {
        "@id": "way/183513822",
        "addr:city": "Bandung",
        "addr:postcode": "40135",
        "addr:street": "Jl. Ir. H. Juanda No.381A, Dago, Kecamatan Coblong, Kota Bandung, Jawa Barat 40135",
        "building": "yes",
        "name": "The Jayakarta Suites Bandung",
        "tourism": "hotel",
        "@geometry": "center"
      },
      "geometry": {
        "type": "Point",
        "coordinates": [
          107.6193567,
          -6.8709116
        ]
      },
      "id": "way/183513822"
    },
    {
      "type": "Feature",
      "properties": {
        "@id": "way/185080150",
        "building": "yes",
        "name": "Hotel Bukit Dago",
        "tourism": "motel",
        "@geometry": "center"
      },
      "geometry": {
        "type": "Point",
        "coordinates": [
          107.6169686,
          -6.8770186
        ]
      },
      "id": "way/185080150"
    },
    {
      "type": "Feature",
      "properties": {
        "@id": "way/185428752",
        "addr:city": "Bandung",
        "addr:postcode": "40135",
        "addr:street": "Jl. Ir. H. Juanda No.390, Dago, Kecamatan Coblong, Kota Bandung, Jawa Barat 40135",
        "building": "yes",
        "name": "Sheraton Bandung Hotel & Towers",
        "tourism": "hotel",
        "@geometry": "center"
      },
      "geometry": {
        "type": "Point",
        "coordinates": [
          107.620065,
          -6.8745329
        ]
      },
      "id": "way/185428752"
    },
    {
      "type": "Feature",
      "properties": {
        "@id": "way/185937173",
        "access:roof": "yes",
        "addr:full": "Jl. Sukarno Hatta",
        "building:roof": "tile",
        "building:structure": "reinforced_masonry",
        "building:walls": "brick",
        "capacity:persons": "300",
        "ele": "20",
        "name": "Ghotic",
        "tourism": "hotel",
        "@geometry": "center"
      },
      "geometry": {
        "type": "Point",
        "coordinates": [
          107.6470632,
          -6.9443095
        ]
      },
      "id": "way/185937173"
    },
    {
      "type": "Feature",
      "properties": {
        "@id": "way/187367314",
        "name": "Wisma PLN",
        "tourism": "guest_house",
        "@geometry": "center"
      },
      "geometry": {
        "type": "Point",
        "coordinates": [
          107.6276487,
          -6.9383289
        ]
      },
      "id": "way/187367314"
    },
    {
      "type": "Feature",
      "properties": {
        "@id": "way/194709221",
        "building": "yes",
        "email": "hotelbkp@yahoo.com",
        "fax": "+62 22 7104704",
        "internet_access": "yes",
        "internet_access:fee": "no",
        "name": "Bumi Kitri",
        "operator": "Kwarda Gerakan Pramuka Jawa Barat",
        "phone": "+62 22 7216913",
        "smoking": "separated",
        "stars": "3",
        "tourism": "hotel",
        "website": "www.hotelbumikitri.com",
        "wheelchair": "yes",
        "@geometry": "center"
      },
      "geometry": {
        "type": "Point",
        "coordinates": [
          107.6411098,
          -6.892691
        ]
      },
      "id": "way/194709221"
    },
    {
      "type": "Feature",
      "properties": {
        "@id": "way/222621719",
        "building": "yes",
        "name": "ASOKA Inn",
        "tourism": "hotel",
        "@geometry": "center"
      },
      "geometry": {
        "type": "Point",
        "coordinates": [
          107.5808554,
          -6.8807157
        ]
      },
      "id": "way/222621719"
    },
    {
      "type": "Feature",
      "properties": {
        "@id": "way/372063342",
        "addr:city": "Bandung",
        "addr:housenumber": "15-17",
        "addr:postcode": "40111",
        "addr:street": "Jalan Asia Afrika",
        "building": "hotel",
        "name": "Hotel Golden Flower",
        "operator": "Kagum Group",
        "rooms": "193",
        "smoking": "outside",
        "tourism": "hotel",
        "website": "https://golden-flower.co.id/",
        "@geometry": "center"
      },
      "geometry": {
        "type": "Point",
        "coordinates": [
          107.604801,
          -6.9204882
        ]
      },
      "id": "way/372063342"
    },
    {
      "type": "Feature",
      "properties": {
        "@id": "way/376352094",
        "addr:housenumber": "7",
        "addr:street": "Jalan Sumur Bandung",
        "building": "yes",
        "name": "Kalya Hotel",
        "tourism": "hotel",
        "@geometry": "center"
      },
      "geometry": {
        "type": "Point",
        "coordinates": [
          107.6123845,
          -6.8857376
        ]
      },
      "id": "way/376352094"
    },
    {
      "type": "Feature",
      "properties": {
        "@id": "way/376352123",
        "building": "yes",
        "internet_access": "wlan",
        "internet_access:fee": "no",
        "name": "Wisma Kartini",
        "operator": "Wisma Kartini",
        "tourism": "hotel",
        "@geometry": "center"
      },
      "geometry": {
        "type": "Point",
        "coordinates": [
          107.6165329,
          -6.9177729
        ]
      },
      "id": "way/376352123"
    },
    {
      "type": "Feature",
      "properties": {
        "@id": "way/381033009",
        "building": "yes",
        "name": "Sapadia",
        "tourism": "hostel",
        "@geometry": "center"
      },
      "geometry": {
        "type": "Point",
        "coordinates": [
          107.6107628,
          -6.898026
        ]
      },
      "id": "way/381033009"
    },
    {
      "type": "Feature",
      "properties": {
        "@id": "way/381616655",
        "building": "yes",
        "name": "Hotel Pelangi Indah",
        "tourism": "hotel",
        "@geometry": "center"
      },
      "geometry": {
        "type": "Point",
        "coordinates": [
          107.597969,
          -6.9098226
        ]
      },
      "id": "way/381616655"
    },
    {
      "type": "Feature",
      "properties": {
        "@id": "way/381642374",
        "building": "yes",
        "name": "Pia Hotel Bandung",
        "tourism": "hotel",
        "@geometry": "center"
      },
      "geometry": {
        "type": "Point",
        "coordinates": [
          107.6238004,
          -6.9499631
        ]
      },
      "id": "way/381642374"
    },
    {
      "type": "Feature",
      "properties": {
        "@id": "way/413568982",
        "addr:city": "Bandung",
        "addr:housenumber": "1",
        "addr:street": "Jalan Setra Indah Utara 2",
        "name": "Triple C Guest House",
        "tourism": "guest_house",
        "@geometry": "center"
      },
      "geometry": {
        "type": "Point",
        "coordinates": [
          107.5888447,
          -6.880483
        ]
      },
      "id": "way/413568982"
    },
    {
      "type": "Feature",
      "properties": {
        "@id": "way/418955041",
        "building": "yes",
        "landuse": "recreation_ground",
        "name": "Hotel Pasar Baru Heritage Bandung",
        "tourism": "hotel",
        "@geometry": "center"
      },
      "geometry": {
        "type": "Point",
        "coordinates": [
          107.6037863,
          -6.917979
        ]
      },
      "id": "way/418955041"
    },
    {
      "type": "Feature",
      "properties": {
        "@id": "way/421572123",
        "addr:city": "Bandung",
        "addr:housenumber": "31-35",
        "addr:postcode": "40111",
        "addr:street": "Jalan Naripan",
        "building": "yes",
        "name": "Hotel New Naripan",
        "tourism": "hotel",
        "@geometry": "center"
      },
      "geometry": {
        "type": "Point",
        "coordinates": [
          107.6118116,
          -6.920287
        ]
      },
      "id": "way/421572123"
    },
    {
      "type": "Feature",
      "properties": {
        "@id": "way/421572125",
        "addr:city": "Bandung",
        "addr:street": "Jalan Braga",
        "building": "yes",
        "name": "Kimaya",
        "tourism": "hotel",
        "@geometry": "center"
      },
      "geometry": {
        "type": "Point",
        "coordinates": [
          107.6104182,
          -6.9207728
        ]
      },
      "id": "way/421572125"
    },
    {
      "type": "Feature",
      "properties": {
        "@id": "way/421572129",
        "addr:city": "Bandung",
        "addr:street": "Jalan Braga",
        "building": "yes",
        "building:levels": "14",
        "name": "Hotel Gino Feruci",
        "operator": "Kagum Group",
        "tourism": "hotel",
        "@geometry": "center"
      },
      "geometry": {
        "type": "Point",
        "coordinates": [
          107.6089891,
          -6.917868
        ]
      },
      "id": "way/421572129"
    },
    {
      "type": "Feature",
      "properties": {
        "@id": "way/421576674",
        "addr:city": "Bandung",
        "addr:street": "Jalan Kebon Jukut",
        "building": "yes",
        "designation": "Hotel Planet",
        "name": "Vue Palace Artotel Curated",
        "tourism": "hotel",
        "@geometry": "center"
      },
      "geometry": {
        "type": "Point",
        "coordinates": [
          107.6051334,
          -6.9130408
        ]
      },
      "id": "way/421576674"
    },
    {
      "type": "Feature",
      "properties": {
        "@id": "way/421576677",
        "addr:city": "Bandung",
        "addr:street": "Jalan Asia Afrika",
        "landuse": "commercial",
        "name": "Hotel Bidakara Savoy Homann",
        "name:en": "Savoy Homann Bidakara Hotel",
        "tourism": "hotel",
        "website": "http://www.savoyhomann-hotel.com",
        "wikidata": "Q1330669",
        "wikimedia_commons": "Category:Hotel Savoy Homann",
        "wikipedia": "en:Savoy Homann Bidakara Hotel",
        "@geometry": "center"
      },
      "geometry": {
        "type": "Point",
        "coordinates": [
          107.6103144,
          -6.9221986
        ]
      },
      "id": "way/421576677"
    },
    {
      "type": "Feature",
      "properties": {
        "@id": "way/421576684",
        "addr:city": "Bandung",
        "addr:street": "Jalan Asia Afrika",
        "building": "yes",
        "name": "Hotel Kumala",
        "tourism": "hotel",
        "@geometry": "center"
      },
      "geometry": {
        "type": "Point",
        "coordinates": [
          107.6139727,
          -6.9223776
        ]
      },
      "id": "way/421576684"
    },
    {
      "type": "Feature",
      "properties": {
        "@id": "way/421576685",
        "addr:city": "Bandung",
        "addr:housenumber": "128",
        "addr:street": "Jalan Asia Afrika",
        "building": "hotel",
        "name": "The Suddha Asia Afrika Bandung",
        "stars": "2",
        "tourism": "hotel",
        "@geometry": "center"
      },
      "geometry": {
        "type": "Point",
        "coordinates": [
          107.6132759,
          -6.9222618
        ]
      },
      "id": "way/421576685"
    },
    {
      "type": "Feature",
      "properties": {
        "@id": "way/422236651",
        "addr:city": "Bandung",
        "addr:street": "Jenderal Gatot Subroto",
        "brand": "Ibis",
        "brand:wikidata": "Q920166",
        "brand:wikipedia": "en:Ibis (hotel)",
        "building": "hotel",
        "building:levels": "24",
        "designation": "3",
        "name": "Ibis Trans Studio Bandung",
        "tourism": "hotel",
        "@geometry": "center"
      },
      "geometry": {
        "type": "Point",
        "coordinates": [
          107.6365322,
          -6.9272803
        ]
      },
      "id": "way/422236651"
    },
    {
      "type": "Feature",
      "properties": {
        "@id": "way/422236652",
        "addr:city": "Bandung",
        "addr:street": "Jalan Gatot Subroto",
        "building": "hotel",
        "building:levels": "20",
        "designation": "5",
        "name": "The Trans Luxury Hotel",
        "tourism": "hotel",
        "wheelchair": "yes",
        "@geometry": "center"
      },
      "geometry": {
        "type": "Point",
        "coordinates": [
          107.6361149,
          -6.9271366
        ]
      },
      "id": "way/422236652"
    },
    {
      "type": "Feature",
      "properties": {
        "@id": "way/425693199",
        "addr:city": "Bandung",
        "addr:housenumber": "126",
        "addr:postcode": "40171",
        "addr:street": "Jalan Pasir Kaliki",
        "building": "yes",
        "name": "Atlantic City Hotel Bandung",
        "phone": "+62224208222",
        "smoking": "separated",
        "tourism": "hotel",
        "website": "http://www.atlanticcityhotelbandung.com",
        "@geometry": "center"
      },
      "geometry": {
        "type": "Point",
        "coordinates": [
          107.5979504,
          -6.9069293
        ]
      },
      "id": "way/425693199"
    },
    {
      "type": "Feature",
      "properties": {
        "@id": "node/479731735",
        "addr:city": "Bandung",
        "addr:housenumber": "#56-58",
        "addr:postcode": "40142",
        "addr:street": "Jalan Rancabentang",
        "name": "Padma Hotel Bandung",
        "tourism": "hotel"
      },
      "geometry": {
        "type": "Point",
        "coordinates": [
          107.6090275,
          -6.8646342
        ]
      },
      "id": "node/479731735"
    },
    {
      "type": "Feature",
      "properties": {
        "@id": "node/479731737",
        "addr:street": "Jalan Ciumbeuluit",
        "internet_access": "wlan",
        "name": "Grha Ciumbuleuit Guest House",
        "opening_hours": "24/7",
        "tourism": "hotel",
        "website": "https://grhaciumbuleuitgh.com/"
      },
      "geometry": {
        "type": "Point",
        "coordinates": [
          107.6062461,
          -6.8671861
        ]
      },
      "id": "node/479731737"
    },
    {
      "type": "Feature",
      "properties": {
        "@id": "way/512057463",
        "building": "yes",
        "name": "Hotel Chrysanta",
        "tourism": "hotel",
        "@geometry": "center"
      },
      "geometry": {
        "type": "Point",
        "coordinates": [
          107.5979326,
          -6.9005946
        ]
      },
      "id": "way/512057463"
    },
    {
      "type": "Feature",
      "properties": {
        "@id": "way/512168582",
        "building": "yes",
        "name": "Tama Boutique Hotel",
        "tourism": "hotel",
        "@geometry": "center"
      },
      "geometry": {
        "type": "Point",
        "coordinates": [
          107.5986125,
          -6.903776
        ]
      },
      "id": "way/512168582"
    },
    {
      "type": "Feature",
      "properties": {
        "@id": "way/512276736",
        "building": "yes",
        "name": "Kampioen Bed And Breakfast",
        "tourism": "hotel",
        "@geometry": "center"
      },
      "geometry": {
        "type": "Point",
        "coordinates": [
          107.6016617,
          -6.9042999
        ]
      },
      "id": "way/512276736"
    },
    {
      "type": "Feature",
      "properties": {
        "@id": "way/512353748",
        "building": "yes",
        "name": "Hay Hotel Bandung",
        "tourism": "hotel",
        "@geometry": "center"
      },
      "geometry": {
        "type": "Point",
        "coordinates": [
          107.6131155,
          -6.9033172
        ]
      },
      "id": "way/512353748"
    },
    {
      "type": "Feature",
      "properties": {
        "@id": "way/512704810",
        "building": "yes",
        "name": "Hotel Serela Riau Bandung",
        "tourism": "hotel",
        "@geometry": "center"
      },
      "geometry": {
        "type": "Point",
        "coordinates": [
          107.6199144,
          -6.9062632
        ]
      },
      "id": "way/512704810"
    },
    {
      "type": "Feature",
      "properties": {
        "@id": "way/512932720",
        "building": "yes",
        "name": "Kytos Hotel Bandung",
        "tourism": "hotel",
        "@geometry": "center"
      },
      "geometry": {
        "type": "Point",
        "coordinates": [
          107.593376,
          -6.8694282
        ]
      },
      "id": "way/512932720"
    },
    {
      "type": "Feature",
      "properties": {
        "@id": "way/513014413",
        "building": "yes",
        "name": "Hotel Latief Inn Bandung",
        "tourism": "hotel",
        "@geometry": "center"
      },
      "geometry": {
        "type": "Point",
        "coordinates": [
          107.6173797,
          -6.9173071
        ]
      },
      "id": "way/513014413"
    },
    {
      "type": "Feature",
      "properties": {
        "@id": "way/513238429",
        "brand": "Crowne Plaza",
        "brand:wikidata": "Q2746220",
        "building": "yes",
        "name": "Crowne Plaza Hotel Bandung",
        "tourism": "hotel",
        "@geometry": "center"
      },
      "geometry": {
        "type": "Point",
        "coordinates": [
          107.6120171,
          -6.9170796
        ]
      },
      "id": "way/513238429"
    },
    {
      "type": "Feature",
      "properties": {
        "@id": "way/513259571",
        "building": "yes",
        "name": "Latief Inn Hotel",
        "tourism": "hotel",
        "@geometry": "center"
      },
      "geometry": {
        "type": "Point",
        "coordinates": [
          107.6163035,
          -6.9170244
        ]
      },
      "id": "way/513259571"
    },
    {
      "type": "Feature",
      "properties": {
        "@id": "way/513259587",
        "addr:city": "Bandung",
        "addr:street": "Jalan Cibuntut",
        "building": "yes",
        "email": "rumahtawa@ymail.com",
        "fax": "+62 22 4264245",
        "name": "Rumah Tawa Hotel",
        "phone": "+62 22 4264244",
        "tourism": "hotel",
        "@geometry": "center"
      },
      "geometry": {
        "type": "Point",
        "coordinates": [
          107.6149261,
          -6.9169663
        ]
      },
      "id": "way/513259587"
    },
    {
      "type": "Feature",
      "properties": {
        "@id": "way/513325733",
        "addr:city": "Bandung",
        "addr:housenumber": "14",
        "addr:postcode": "40111",
        "addr:street": "Jalan Suniaraja",
        "architect": "CV Griya Kharisma",
        "building": "yes",
        "building:levels": "7",
        "email": "reception@kedatonhotel.com",
        "internet_access": "wlan",
        "internet_access:fee": "customers",
        "name": "Hotel Kedaton",
        "phone": "+62 22 4219898",
        "rooms": "116",
        "start_date": "1997",
        "tourism": "hotel",
        "website": "https://kedatonhotel.com/",
        "year_of_construction": "1994-12..1996-12",
        "@geometry": "center"
      },
      "geometry": {
        "type": "Point",
        "coordinates": [
          107.6078988,
          -6.915551
        ]
      },
      "id": "way/513325733"
    },
    {
      "type": "Feature",
      "properties": {
        "@id": "way/513325815",
        "building": "yes",
        "name": "Mogens Guest House Bandung",
        "tourism": "hotel",
        "@geometry": "center"
      },
      "geometry": {
        "type": "Point",
        "coordinates": [
          107.6062832,
          -6.9119667
        ]
      },
      "id": "way/513325815"
    },
    {
      "type": "Feature",
      "properties": {
        "@id": "way/513432777",
        "building": "yes",
        "name": "Hotel Kurnia",
        "tourism": "hotel",
        "@geometry": "center"
      },
      "geometry": {
        "type": "Point",
        "coordinates": [
          107.6167262,
          -6.9284057
        ]
      },
      "id": "way/513432777"
    },
    {
      "type": "Feature",
      "properties": {
        "@id": "way/513439349",
        "building": "yes",
        "name": "Hotel Montameri Bandung",
        "tourism": "hotel",
        "@geometry": "center"
      },
      "geometry": {
        "type": "Point",
        "coordinates": [
          107.6266441,
          -6.930177
        ]
      },
      "id": "way/513439349"
    },
    {
      "type": "Feature",
      "properties": {
        "@id": "way/513524062",
        "building": "yes",
        "name": "Yokotel Hotel Bandung",
        "tourism": "hotel",
        "@geometry": "center"
      },
      "geometry": {
        "type": "Point",
        "coordinates": [
          107.6016796,
          -6.9163547
        ]
      },
      "id": "way/513524062"
    },
    {
      "type": "Feature",
      "properties": {
        "@id": "way/513569070",
        "brand": "OYO",
        "brand:wikidata": "Q24906315",
        "building": "yes",
        "name": "OYO 944 Doorman Guest House",
        "tourism": "hotel",
        "@geometry": "center"
      },
      "geometry": {
        "type": "Point",
        "coordinates": [
          107.5996807,
          -6.9175187
        ]
      },
      "id": "way/513569070"
    },
    {
      "type": "Feature",
      "properties": {
        "@id": "way/513810440",
        "building": "yes",
        "name": "Chara Hotel Bandung",
        "tourism": "hotel",
        "@geometry": "center"
      },
      "geometry": {
        "type": "Point",
        "coordinates": [
          107.6197044,
          -6.9223207
        ]
      },
      "id": "way/513810440"
    },
    {
      "type": "Feature",
      "properties": {
        "@id": "way/514105041",
        "building": "yes",
        "name": "Hotel Zodiak Asia Afrika Bandung",
        "tourism": "hotel",
        "@geometry": "center"
      },
      "geometry": {
        "type": "Point",
        "coordinates": [
          107.6048829,
          -6.9211519
        ]
      },
      "id": "way/514105041"
    },
    {
      "type": "Feature",
      "properties": {
        "@id": "way/514640354",
        "building": "yes",
        "name": "Andelir Hotel",
        "tourism": "hotel",
        "@geometry": "center"
      },
      "geometry": {
        "type": "Point",
        "coordinates": [
          107.601104,
          -6.8962022
        ]
      },
      "id": "way/514640354"
    },
    {
      "type": "Feature",
      "properties": {
        "@id": "way/516636636",
        "building": "yes",
        "name": "Hotel Anugerah",
        "tourism": "guest_house",
        "@geometry": "center"
      },
      "geometry": {
        "type": "Point",
        "coordinates": [
          107.5932501,
          -6.8500107
        ]
      },
      "id": "way/516636636"
    },
    {
      "type": "Feature",
      "properties": {
        "@id": "way/516640017",
        "building": "yes",
        "name": "Gumilang Regency Hotel",
        "tourism": "hotel",
        "@geometry": "center"
      },
      "geometry": {
        "type": "Point",
        "coordinates": [
          107.599553,
          -6.8458278
        ]
      },
      "id": "way/516640017"
    },
    {
      "type": "Feature",
      "properties": {
        "@id": "way/518518217",
        "building": "yes",
        "tourism": "guest_house",
        "@geometry": "center"
      },
      "geometry": {
        "type": "Point",
        "coordinates": [
          107.5943521,
          -6.8503542
        ]
      },
      "id": "way/518518217"
    },
    {
      "type": "Feature",
      "properties": {
        "@id": "way/519057340",
        "building": "yes",
        "name": "Cinnamon Hotel Boutique Syariah",
        "tourism": "hotel",
        "@geometry": "center"
      },
      "geometry": {
        "type": "Point",
        "coordinates": [
          107.595254,
          -6.8586379
        ]
      },
      "id": "way/519057340"
    },
    {
      "type": "Feature",
      "properties": {
        "@id": "way/520137248",
        "building": "yes",
        "name": "Salis Hotel Bandung",
        "tourism": "hotel",
        "@geometry": "center"
      },
      "geometry": {
        "type": "Point",
        "coordinates": [
          107.5951923,
          -6.8610847
        ]
      },
      "id": "way/520137248"
    },
    {
      "type": "Feature",
      "properties": {
        "@id": "way/520137332",
        "addr:city": "Bandung",
        "addr:housenumber": "19",
        "addr:street": "Jalan Cipaku I",
        "building": "yes",
        "fax": "+62 22 2008975",
        "internet_access": "wlan",
        "internet_access:fee": "no",
        "name": "Hotel Augusta Valley",
        "phone": "+62 22 2005036",
        "tourism": "hotel",
        "@geometry": "center"
      },
      "geometry": {
        "type": "Point",
        "coordinates": [
          107.598294,
          -6.8639199
        ]
      },
      "id": "way/520137332"
    },
    {
      "type": "Feature",
      "properties": {
        "@id": "way/522949382",
        "building": "yes",
        "name": "SHEO Resort Hotel",
        "tourism": "hotel",
        "@geometry": "center"
      },
      "geometry": {
        "type": "Point",
        "coordinates": [
          107.6064713,
          -6.8671645
        ]
      },
      "id": "way/522949382"
    },
    {
      "type": "Feature",
      "properties": {
        "@id": "way/522949390",
        "building": "yes",
        "name": "Grha Ciumbuleuit Guest House",
        "tourism": "hotel",
        "@geometry": "center"
      },
      "geometry": {
        "type": "Point",
        "coordinates": [
          107.6062993,
          -6.866601
        ]
      },
      "id": "way/522949390"
    },
    {
      "type": "Feature",
      "properties": {
        "@id": "way/522949417",
        "building": "yes",
        "name": "Concordia Hotel",
        "tourism": "hotel",
        "@geometry": "center"
      },
      "geometry": {
        "type": "Point",
        "coordinates": [
          107.6082433,
          -6.866686
        ]
      },
      "id": "way/522949417"
    },
    {
      "type": "Feature",
      "properties": {
        "@id": "way/530164131",
        "addr:full": "Jalan Wastukencana No.48, Tamansari, Bandung Wetan, Tamansari, Bandung Wetan, Kota Bandung, Jawa Barat 40116",
        "name": "Hotel California Bandung",
        "tourism": "hotel",
        "@geometry": "center"
      },
      "geometry": {
        "type": "Point",
        "coordinates": [
          107.6052032,
          -6.9037985
        ]
      },
      "id": "way/530164131"
    },
    {
      "type": "Feature",
      "properties": {
        "@id": "way/530304162",
        "building": "house",
        "name": "Sky City Home",
        "tourism": "hotel",
        "@geometry": "center"
      },
      "geometry": {
        "type": "Point",
        "coordinates": [
          107.6152221,
          -6.8765997
        ]
      },
      "id": "way/530304162"
    },
    {
      "type": "Feature",
      "properties": {
        "@id": "way/530331484",
        "building": "yes",
        "name": "Kristalia Hotel",
        "tourism": "hotel",
        "@geometry": "center"
      },
      "geometry": {
        "type": "Point",
        "coordinates": [
          107.6040083,
          -6.9088505
        ]
      },
      "id": "way/530331484"
    },
    {
      "type": "Feature",
      "properties": {
        "@id": "way/530965788",
        "building": "yes",
        "name": "Antapani Home Stay",
        "tourism": "hotel",
        "@geometry": "center"
      },
      "geometry": {
        "type": "Point",
        "coordinates": [
          107.6648247,
          -6.919667
        ]
      },
      "id": "way/530965788"
    },
    {
      "type": "Feature",
      "properties": {
        "@id": "way/536556040",
        "building": "yes",
        "guest_house": "student_accomodation",
        "name": "Kos Pak Suherwan",
        "tourism": "guest_house",
        "@geometry": "center"
      },
      "geometry": {
        "type": "Point",
        "coordinates": [
          107.6128305,
          -6.8798897
        ]
      },
      "id": "way/536556040"
    },
    {
      "type": "Feature",
      "properties": {
        "@id": "way/536660878",
        "building": "yes",
        "name": "Alqueby Hotel",
        "tourism": "hotel",
        "@geometry": "center"
      },
      "geometry": {
        "type": "Point",
        "coordinates": [
          107.6510442,
          -6.9119153
        ]
      },
      "id": "way/536660878"
    },
    {
      "type": "Feature",
      "properties": {
        "@id": "way/546473715",
        "building": "yes",
        "name": "V Hotel",
        "tourism": "hotel",
        "@geometry": "center"
      },
      "geometry": {
        "type": "Point",
        "coordinates": [
          107.584638,
          -6.881848
        ]
      },
      "id": "way/546473715"
    },
    {
      "type": "Feature",
      "properties": {
        "@id": "way/546634832",
        "building": "yes",
        "name": "Hotel NEO Dipatiukur",
        "tourism": "hotel",
        "@geometry": "center"
      },
      "geometry": {
        "type": "Point",
        "coordinates": [
          107.616458,
          -6.8898497
        ]
      },
      "id": "way/546634832"
    },
    {
      "type": "Feature",
      "properties": {
        "@id": "way/546721635",
        "building": "yes",
        "name": "Homy Kost Ekslusif Bandung",
        "tourism": "hotel",
        "@geometry": "center"
      },
      "geometry": {
        "type": "Point",
        "coordinates": [
          107.6119671,
          -6.8841694
        ]
      },
      "id": "way/546721635"
    },
    {
      "type": "Feature",
      "properties": {
        "@id": "way/548319227",
        "building": "yes",
        "name": "Vio Hotel",
        "tourism": "hotel",
        "@geometry": "center"
      },
      "geometry": {
        "type": "Point",
        "coordinates": [
          107.6212304,
          -6.9031147
        ]
      },
      "id": "way/548319227"
    },
    {
      "type": "Feature",
      "properties": {
        "@id": "way/548474142",
        "building": "yes",
        "internet_access": "wlan",
        "name": "Pondok Bunda",
        "tourism": "guest_house",
        "@geometry": "center"
      },
      "geometry": {
        "type": "Point",
        "coordinates": [
          107.6214315,
          -6.8897518
        ]
      },
      "id": "way/548474142"
    },
    {
      "type": "Feature",
      "properties": {
        "@id": "way/629346935",
        "building": "yes",
        "name": "Swan House",
        "tourism": "hotel",
        "@geometry": "center"
      },
      "geometry": {
        "type": "Point",
        "coordinates": [
          107.6060528,
          -6.8730069
        ]
      },
      "id": "way/629346935"
    },
    {
      "type": "Feature",
      "properties": {
        "@id": "way/632229280",
        "building": "yes",
        "name": "Dbest Express Hotel",
        "tourism": "hotel",
        "@geometry": "center"
      },
      "geometry": {
        "type": "Point",
        "coordinates": [
          107.6085771,
          -6.9454353
        ]
      },
      "id": "way/632229280"
    },
    {
      "type": "Feature",
      "properties": {
        "@id": "way/632231657",
        "building": "yes",
        "name": "The Batik Bed And Coffee Bandung",
        "tourism": "hotel",
        "@geometry": "center"
      },
      "geometry": {
        "type": "Point",
        "coordinates": [
          107.6127263,
          -6.9464426
        ]
      },
      "id": "way/632231657"
    },
    {
      "type": "Feature",
      "properties": {
        "@id": "way/632254939",
        "building": "yes",
        "name": "P Hostel Bandung",
        "tourism": "hostel",
        "@geometry": "center"
      },
      "geometry": {
        "type": "Point",
        "coordinates": [
          107.6020992,
          -6.9374995
        ]
      },
      "id": "way/632254939"
    },
    {
      "type": "Feature",
      "properties": {
        "@id": "way/632544348",
        "building": "yes",
        "name": "D Best Hotel",
        "tourism": "hotel",
        "@geometry": "center"
      },
      "geometry": {
        "type": "Point",
        "coordinates": [
          107.6033232,
          -6.9296455
        ]
      },
      "id": "way/632544348"
    },
    {
      "type": "Feature",
      "properties": {
        "@id": "way/632553819",
        "building": "yes",
        "name": "Hotel Grand Tulip Bandung",
        "tourism": "hotel",
        "@geometry": "center"
      },
      "geometry": {
        "type": "Point",
        "coordinates": [
          107.5975441,
          -6.9300286
        ]
      },
      "id": "way/632553819"
    },
    {
      "type": "Feature",
      "properties": {
        "@id": "way/632681439",
        "building": "yes",
        "name": "Hotel Nyland 3 Cijagra",
        "tourism": "hotel",
        "@geometry": "center"
      },
      "geometry": {
        "type": "Point",
        "coordinates": [
          107.6257272,
          -6.9484018
        ]
      },
      "id": "way/632681439"
    },
    {
      "type": "Feature",
      "properties": {
        "@id": "way/632681480",
        "building": "yes",
        "name": "Asri Residence",
        "tourism": "hotel",
        "@geometry": "center"
      },
      "geometry": {
        "type": "Point",
        "coordinates": [
          107.6252311,
          -6.9486533
        ]
      },
      "id": "way/632681480"
    },
    {
      "type": "Feature",
      "properties": {
        "@id": "way/633172661",
        "building": "yes",
        "name": "Hotel Arimbi Kopo",
        "tourism": "hotel",
        "@geometry": "center"
      },
      "geometry": {
        "type": "Point",
        "coordinates": [
          107.589343,
          -6.9464709
        ]
      },
      "id": "way/633172661"
    },
    {
      "type": "Feature",
      "properties": {
        "@id": "way/633176935",
        "building": "yes",
        "name": "Hotel Eve Bandung",
        "tourism": "hotel",
        "@geometry": "center"
      },
      "geometry": {
        "type": "Point",
        "coordinates": [
          107.5949695,
          -6.9485884
        ]
      },
      "id": "way/633176935"
    },
    {
      "type": "Feature",
      "properties": {
        "@id": "way/633769488",
        "building": "yes",
        "name": "Fora Guest House Suka Asih",
        "tourism": "hotel",
        "@geometry": "center"
      },
      "geometry": {
        "type": "Point",
        "coordinates": [
          107.5922782,
          -6.9371284
        ]
      },
      "id": "way/633769488"
    },
    {
      "type": "Feature",
      "properties": {
        "@id": "way/634629051",
        "building": "yes",
        "name": "Geowisata Inn",
        "task": "64",
        "tourism": "hotel",
        "@geometry": "center"
      },
      "geometry": {
        "type": "Point",
        "coordinates": [
          107.5786045,
          -6.917279
        ]
      },
      "id": "way/634629051"
    },
    {
      "type": "Feature",
      "properties": {
        "@id": "way/635812821",
        "building": "yes",
        "name": "Serela Waringin Hotel",
        "tourism": "hotel",
        "@geometry": "center"
      },
      "geometry": {
        "type": "Point",
        "coordinates": [
          107.5930115,
          -6.9175194
        ]
      },
      "id": "way/635812821"
    },
    {
      "type": "Feature",
      "properties": {
        "@id": "way/635900850",
        "building": "yes",
        "name": "Losmen Leuwi Panjang",
        "tourism": "hotel",
        "@geometry": "center"
      },
      "geometry": {
        "type": "Point",
        "coordinates": [
          107.5949093,
          -6.9455642
        ]
      },
      "id": "way/635900850"
    },
    {
      "type": "Feature",
      "properties": {
        "@id": "way/636145859",
        "addr:city": "Bandung",
        "addr:housenumber": "53-55",
        "addr:street": "Jalan HOS. Tjokroaminoto",
        "building": "yes",
        "name": "Grand Guci Hotel",
        "tourism": "hotel",
        "@geometry": "center"
      },
      "geometry": {
        "type": "Point",
        "coordinates": [
          107.5975315,
          -6.9111081
        ]
      },
      "id": "way/636145859"
    },
    {
      "type": "Feature",
      "properties": {
        "@id": "way/636169669",
        "building": "yes",
        "name": "OYO 1308 Darmo Residence",
        "tourism": "hotel",
        "@geometry": "center"
      },
      "geometry": {
        "type": "Point",
        "coordinates": [
          107.5880202,
          -6.8970944
        ]
      },
      "id": "way/636169669"
    },
    {
      "type": "Feature",
      "properties": {
        "@id": "way/636227969",
        "building": "yes",
        "name": "OYO 617 Sukaraja Residence",
        "tourism": "hotel",
        "@geometry": "center"
      },
      "geometry": {
        "type": "Point",
        "coordinates": [
          107.5735463,
          -6.8938651
        ]
      },
      "id": "way/636227969"
    },
    {
      "type": "Feature",
      "properties": {
        "@id": "way/636241818",
        "building": "yes",
        "name": "New Moonlight Hotel Bandung",
        "tourism": "hotel",
        "@geometry": "center"
      },
      "geometry": {
        "type": "Point",
        "coordinates": [
          107.5964556,
          -6.9263715
        ]
      },
      "id": "way/636241818"
    },
    {
      "type": "Feature",
      "properties": {
        "@id": "way/636448775",
        "building": "yes",
        "name": "Hotel Reddoorz Malabar 39 Samoja",
        "tourism": "hotel",
        "@geometry": "center"
      },
      "geometry": {
        "type": "Point",
        "coordinates": [
          107.6248212,
          -6.9229919
        ]
      },
      "id": "way/636448775"
    },
    {
      "type": "Feature",
      "properties": {
        "@id": "way/637420053",
        "building": "yes",
        "name": "Hunian Kost Sangkuriang",
        "tourism": "hostel",
        "@geometry": "center"
      },
      "geometry": {
        "type": "Point",
        "coordinates": [
          107.6122955,
          -6.8826507
        ]
      },
      "id": "way/637420053"
    },
    {
      "type": "Feature",
      "properties": {
        "@id": "way/637420465",
        "building": "yes",
        "name": "Hunian Kost Sangkuriang",
        "tourism": "hostel",
        "@geometry": "center"
      },
      "geometry": {
        "type": "Point",
        "coordinates": [
          107.6121556,
          -6.8826931
        ]
      },
      "id": "way/637420465"
    },
    {
      "type": "Feature",
      "properties": {
        "@id": "way/637420766",
        "building": "yes",
        "name": "Hunian Kost Sangkuriang",
        "tourism": "hostel",
        "@geometry": "center"
      },
      "geometry": {
        "type": "Point",
        "coordinates": [
          107.6120461,
          -6.8826897
        ]
      },
      "id": "way/637420766"
    },
    {
      "type": "Feature",
      "properties": {
        "@id": "way/638389091",
        "building": "yes",
        "name": "Javaretro Hotel & Suite",
        "tourism": "hotel",
        "@geometry": "center"
      },
      "geometry": {
        "type": "Point",
        "coordinates": [
          107.5773756,
          -6.8885254
        ]
      },
      "id": "way/638389091"
    },
    {
      "type": "Feature",
      "properties": {
        "@id": "way/638394154",
        "alt_name": "OYO 794",
        "building": "yes",
        "internet_access": "wlan",
        "internet_access:fee": "no",
        "name": "LN9 Guest House Bandung",
        "tourism": "hotel",
        "@geometry": "center"
      },
      "geometry": {
        "type": "Point",
        "coordinates": [
          107.5792946,
          -6.8824188
        ]
      },
      "id": "way/638394154"
    },
    {
      "type": "Feature",
      "properties": {
        "@id": "way/638454858",
        "building": "yes",
        "name": "Ariandri Boutique Guesthouse",
        "tourism": "hotel",
        "@geometry": "center"
      },
      "geometry": {
        "type": "Point",
        "coordinates": [
          107.5825238,
          -6.8881008
        ]
      },
      "id": "way/638454858"
    },
    {
      "type": "Feature",
      "properties": {
        "@id": "way/638461705",
        "addr:city": "Bandung",
        "addr:housenumber": "153",
        "addr:postcode": "40162",
        "addr:street": "Jalan Sukajadi",
        "building": "yes",
        "name": "Park View Hotel",
        "tourism": "hotel",
        "@geometry": "center"
      },
      "geometry": {
        "type": "Point",
        "coordinates": [
          107.5961832,
          -6.8861241
        ]
      },
      "id": "way/638461705"
    },
    {
      "type": "Feature",
      "properties": {
        "@id": "way/638470841",
        "building": "yes",
        "name": "Grand Aquila Hotel Bandung",
        "tourism": "hotel",
        "@geometry": "center"
      },
      "geometry": {
        "type": "Point",
        "coordinates": [
          107.5898408,
          -6.8949993
        ]
      },
      "id": "way/638470841"
    },
    {
      "type": "Feature",
      "properties": {
        "@id": "way/638488952",
        "building": "yes",
        "name": "Sukajadi Hotel Bandung",
        "tourism": "hotel",
        "@geometry": "center"
      },
      "geometry": {
        "type": "Point",
        "coordinates": [
          107.5971473,
          -6.8855309
        ]
      },
      "id": "way/638488952"
    },
    {
      "type": "Feature",
      "properties": {
        "@id": "way/638489886",
        "building": "yes",
        "name": "Belviu Hotel Bandung",
        "tourism": "hotel",
        "@geometry": "center"
      },
      "geometry": {
        "type": "Point",
        "coordinates": [
          107.6003041,
          -6.8828257
        ]
      },
      "id": "way/638489886"
    },
    {
      "type": "Feature",
      "properties": {
        "@id": "way/638490225",
        "building": "yes",
        "name": "Cleo Guest House",
        "tourism": "hotel",
        "@geometry": "center"
      },
      "geometry": {
        "type": "Point",
        "coordinates": [
          107.5985616,
          -6.884412
        ]
      },
      "id": "way/638490225"
    },
    {
      "type": "Feature",
      "properties": {
        "@id": "way/638490354",
        "building": "yes",
        "name": "Naval Hotel",
        "tourism": "hotel",
        "@geometry": "center"
      },
      "geometry": {
        "type": "Point",
        "coordinates": [
          107.5969133,
          -6.8849463
        ]
      },
      "id": "way/638490354"
    },
    {
      "type": "Feature",
      "properties": {
        "@id": "way/638684927",
        "addr:housenumber": "22",
        "addr:street": "Dokter Djundjunan",
        "brand": "Ibis",
        "brand:wikidata": "Q920166",
        "brand:wikipedia": "en:Ibis (hotel)",
        "building": "yes",
        "floors": "7",
        "name": "ibis Bandung Pasteur",
        "stars": "3",
        "tourism": "hotel",
        "website": "https://all.accor.com/hotel/9397/index.en.shtml",
        "wheelchair": "yes",
        "@geometry": "center"
      },
      "geometry": {
        "type": "Point",
        "coordinates": [
          107.5960958,
          -6.8998814
        ]
      },
      "id": "way/638684927"
    },
    {
      "type": "Feature",
      "properties": {
        "@id": "way/639144367",
        "building": "yes",
        "name": "Capital O 1044 Diemdi Hotel",
        "tourism": "hotel",
        "@geometry": "center"
      },
      "geometry": {
        "type": "Point",
        "coordinates": [
          107.6444528,
          -6.9191323
        ]
      },
      "id": "way/639144367"
    },
    {
      "type": "Feature",
      "properties": {
        "@id": "way/640405516",
        "brand": "Mercure",
        "brand:wikidata": "Q1709809",
        "building": "yes",
        "name": "Mercure Bandung Nexa Supratman",
        "stars": "4",
        "tourism": "hotel",
        "@geometry": "center"
      },
      "geometry": {
        "type": "Point",
        "coordinates": [
          107.6291721,
          -6.9049157
        ]
      },
      "id": "way/640405516"
    },
    {
      "type": "Feature",
      "properties": {
        "@id": "way/640405932",
        "building": "yes",
        "name": "Hotel Mitra",
        "tourism": "hotel",
        "@geometry": "center"
      },
      "geometry": {
        "type": "Point",
        "coordinates": [
          107.6272791,
          -6.9018433
        ]
      },
      "id": "way/640405932"
    },
    {
      "type": "Feature",
      "properties": {
        "@id": "way/673518847",
        "building": "yes",
        "name": "Hotel Promenade",
        "tourism": "hotel",
        "@geometry": "center"
      },
      "geometry": {
        "type": "Point",
        "coordinates": [
          107.6040921,
          -6.8967405
        ]
      },
      "id": "way/673518847"
    },
    {
      "type": "Feature",
      "properties": {
        "@id": "way/678398281",
        "brand": "Best Western",
        "brand:wikidata": "Q830334",
        "building": "yes",
        "name": "Best Western",
        "tourism": "hotel",
        "@geometry": "center"
      },
      "geometry": {
        "type": "Point",
        "coordinates": [
          107.6102491,
          -6.9092238
        ]
      },
      "id": "way/678398281"
    },
    {
      "type": "Feature",
      "properties": {
        "@id": "way/721493913",
        "building": "yes",
        "check_date": "2024-03-27",
        "name": "Amaris Cimanuk",
        "tourism": "hotel",
        "@geometry": "center"
      },
      "geometry": {
        "type": "Point",
        "coordinates": [
          107.6207007,
          -6.9043277
        ]
      },
      "id": "way/721493913"
    },
    {
      "type": "Feature",
      "properties": {
        "@id": "way/857928866",
        "building": "yes",
        "name": "Hotel Sofiyah Neglasari",
        "tourism": "hotel",
        "@geometry": "center"
      },
      "geometry": {
        "type": "Point",
        "coordinates": [
          107.6384566,
          -6.8937698
        ]
      },
      "id": "way/857928866"
    },
    {
      "type": "Feature",
      "properties": {
        "@id": "way/858677597",
        "addr:city": "Bandung",
        "addr:street": "Manisi",
        "building": "yes",
        "guest_house": "hostel",
        "name": "Mandiri Kost",
        "tourism": "hostel",
        "@geometry": "center"
      },
      "geometry": {
        "type": "Point",
        "coordinates": [
          107.7186195,
          -6.9341389
        ]
      },
      "id": "way/858677597"
    },
    {
      "type": "Feature",
      "properties": {
        "@id": "way/858677599",
        "building": "yes",
        "guest_house": "hostel",
        "internet_access": "wlan",
        "internet_access:fee": "no",
        "name": "Zaffirt House",
        "tourism": "hostel",
        "@geometry": "center"
      },
      "geometry": {
        "type": "Point",
        "coordinates": [
          107.7184458,
          -6.9344233
        ]
      },
      "id": "way/858677599"
    },
    {
      "type": "Feature",
      "properties": {
        "@id": "way/858680637",
        "addr:city": "Cipadung Wetan",
        "addr:street": "Jalan Permai II",
        "building": "yes",
        "guest_house": "hostel",
        "internet_access": "wlan",
        "internet_access:fee": "no",
        "name": "Kostan Cipadung Permai",
        "rooms": "30",
        "shop": "laundry",
        "tourism": "hostel",
        "@geometry": "center"
      },
      "geometry": {
        "type": "Point",
        "coordinates": [
          107.7167167,
          -6.9282051
        ]
      },
      "id": "way/858680637"
    },
    {
      "type": "Feature",
      "properties": {
        "@id": "way/867209820",
        "addr:city": "Bandung",
        "addr:housenumber": "13",
        "addr:postcode": "40135",
        "addr:street": "Jl. Sangkuriang No.13, Dago Suites Apartment 1st Floor GF-A, Dago, Kecamatan Coblong, Kota Bandung, Jawa Barat 40135",
        "building": "apartments",
        "name": "Dago Suites Apartement",
        "tourism": "hotel",
        "@geometry": "center"
      },
      "geometry": {
        "type": "Point",
        "coordinates": [
          107.6097355,
          -6.8837342
        ]
      },
      "id": "way/867209820"
    },
    {
      "type": "Feature",
      "properties": {
        "@id": "way/871875478",
        "building": "yes",
        "name": "Kostan Koe",
        "tourism": "hotel",
        "@geometry": "center"
      },
      "geometry": {
        "type": "Point",
        "coordinates": [
          107.6141487,
          -6.8784714
        ]
      },
      "id": "way/871875478"
    },
    {
      "type": "Feature",
      "properties": {
        "@id": "way/872804190",
        "building": "yes",
        "name": "Hotel Wisma Dago 22",
        "tourism": "hotel",
        "@geometry": "center"
      },
      "geometry": {
        "type": "Point",
        "coordinates": [
          107.6179777,
          -6.8733909
        ]
      },
      "id": "way/872804190"
    },
    {
      "type": "Feature",
      "properties": {
        "@id": "way/875799190",
        "addr:city": "Bandung",
        "addr:postcode": "40135",
        "addr:street": "Jl. Ir. H. Juanda No.390, Dago, Kecamatan Coblong, Kota Bandung, Jawa Barat 40135",
        "building": "yes",
        "name": "Sheraton Bandung Hotel & Towers",
        "tourism": "hotel",
        "@geometry": "center"
      },
      "geometry": {
        "type": "Point",
        "coordinates": [
          107.619393,
          -6.8745911
        ]
      },
      "id": "way/875799190"
    },
    {
      "type": "Feature",
      "properties": {
        "@id": "way/875799191",
        "addr:city": "Bandung",
        "addr:postcode": "40135",
        "addr:street": "Jl. Ir. H. Juanda No.390, Dago, Kecamatan Coblong, Kota Bandung, Jawa Barat 40135",
        "building": "yes",
        "name": "Sheraton Bandung Hotel & Towers",
        "tourism": "hotel",
        "@geometry": "center"
      },
      "geometry": {
        "type": "Point",
        "coordinates": [
          107.6195894,
          -6.874397
        ]
      },
      "id": "way/875799191"
    },
    {
      "type": "Feature",
      "properties": {
        "@id": "way/876390540",
        "building": "yes",
        "name": "The Regia Dago",
        "tourism": "hotel",
        "@geometry": "center"
      },
      "geometry": {
        "type": "Point",
        "coordinates": [
          107.6208716,
          -6.8674032
        ]
      },
      "id": "way/876390540"
    },
    {
      "type": "Feature",
      "properties": {
        "@id": "way/951465918",
        "addr:city": "Bandung",
        "addr:housenumber": "121",
        "addr:street": "Jalan Pelajar Pejuang 45",
        "brand": "Horison",
        "building": "yes",
        "name": "Hotel Horison",
        "rooms": "208",
        "tourism": "hotel",
        "@geometry": "center"
      },
      "geometry": {
        "type": "Point",
        "coordinates": [
          107.6252139,
          -6.9356523
        ]
      },
      "id": "way/951465918"
    },
    {
      "type": "Feature",
      "properties": {
        "@id": "node/1013447614",
        "name": "Arion Swiss Bell",
        "tourism": "hotel"
      },
      "geometry": {
        "type": "Point",
        "coordinates": [
          107.6042599,
          -6.9131037
        ]
      },
      "id": "node/1013447614"
    },
    {
      "type": "Feature",
      "properties": {
        "@id": "way/1052970770",
        "building": "yes",
        "name": "Kost Putri No.15D",
        "tourism": "hotel",
        "@geometry": "center"
      },
      "geometry": {
        "type": "Point",
        "coordinates": [
          107.6197059,
          -6.8860822
        ]
      },
      "id": "way/1052970770"
    },
    {
      "type": "Feature",
      "properties": {
        "@id": "way/1082250050",
        "building": "yes",
        "name": "New B",
        "tourism": "hotel",
        "@geometry": "center"
      },
      "geometry": {
        "type": "Point",
        "coordinates": [
          107.6294003,
          -6.9064607
        ]
      },
      "id": "way/1082250050"
    },
    {
      "type": "Feature",
      "properties": {
        "@id": "node/1099327692",
        "addr:street": "Ir. H Juanda",
        "name": "Jayakarta",
        "tourism": "hotel"
      },
      "geometry": {
        "type": "Point",
        "coordinates": [
          107.6198065,
          -6.8708571
        ]
      },
      "id": "node/1099327692"
    },
    {
      "type": "Feature",
      "properties": {
        "@id": "way/1144620135",
        "building": "yes",
        "tourism": "hotel",
        "@geometry": "center"
      },
      "geometry": {
        "type": "Point",
        "coordinates": [
          107.6009176,
          -6.8433982
        ]
      },
      "id": "way/1144620135"
    },
    {
      "type": "Feature",
      "properties": {
        "@id": "node/1158819836",
        "name": "Camerlang",
        "tourism": "hotel"
      },
      "geometry": {
        "type": "Point",
        "coordinates": [
          107.5976731,
          -6.9122725
        ]
      },
      "id": "node/1158819836"
    },
    {
      "type": "Feature",
      "properties": {
        "@id": "node/1158819872",
        "name": "Mutiara",
        "tourism": "hotel"
      },
      "geometry": {
        "type": "Point",
        "coordinates": [
          107.5984241,
          -6.9120915
        ]
      },
      "id": "node/1158819872"
    },
    {
      "type": "Feature",
      "properties": {
        "@id": "way/1158955877",
        "addr:city": "Bandung",
        "addr:housenumber": "197",
        "addr:postcode": "40135",
        "addr:street": "Jalan Insinyur Haji Juanda",
        "air_conditioning": "no",
        "building": "yes",
        "guest_house": "student_accomodation",
        "internet_access": "wlan",
        "internet_access:fee": "customers",
        "name": "Kos H. Ade",
        "rooms": "6",
        "tourism": "hostel",
        "@geometry": "center"
      },
      "geometry": {
        "type": "Point",
        "coordinates": [
          107.6147893,
          -6.8826033
        ]
      },
      "id": "way/1158955877"
    },
    {
      "type": "Feature",
      "properties": {
        "@id": "way/1200663212",
        "addr:city": "Bandung",
        "addr:housenumber": "735",
        "addr:postcode": "40292",
        "addr:street": "Jalan Soekarno-Hatta",
        "building": "yes",
        "layer": "1",
        "name": "Shakti Hotel",
        "tourism": "hotel",
        "@geometry": "center"
      },
      "geometry": {
        "type": "Point",
        "coordinates": [
          107.697184,
          -6.9373346
        ]
      },
      "id": "way/1200663212"
    },
    {
      "type": "Feature",
      "properties": {
        "@id": "way/1206655963",
        "building": "yes",
        "name": "Grand Asrilia Hotel",
        "tourism": "hotel",
        "@geometry": "center"
      },
      "geometry": {
        "type": "Point",
        "coordinates": [
          107.6245656,
          -6.9364732
        ]
      },
      "id": "way/1206655963"
    },
    {
      "type": "Feature",
      "properties": {
        "@id": "node/1212690953",
        "internet_access": "no",
        "name": "Edelweiss",
        "tourism": "hotel"
      },
      "geometry": {
        "type": "Point",
        "coordinates": [
          107.5967445,
          -6.8820821
        ]
      },
      "id": "node/1212690953"
    },
    {
      "type": "Feature",
      "properties": {
        "@id": "way/1234640088",
        "building": "yes",
        "name": "Hotel Tebu",
        "tourism": "hotel",
        "@geometry": "center"
      },
      "geometry": {
        "type": "Point",
        "coordinates": [
          107.620245,
          -6.9063499
        ]
      },
      "id": "way/1234640088"
    },
    {
      "type": "Feature",
      "properties": {
        "@id": "way/1286450090",
        "addr:housenumber": "96",
        "addr:street": "Jl. Dr. Djunjunan",
        "brand": "Holiday Inn",
        "brand:wikidata": "Q2717882",
        "building": "hotel",
        "building:levels": "10",
        "name": "Holiday Inn Bandung Pasteur",
        "stars": "4",
        "tourism": "hotel",
        "type": "building",
        "website": "https://www.ihg.com/holidayinn/hotels/us/en/bandung/bdopa/hoteldetail",
        "@geometry": "center"
      },
      "geometry": {
        "type": "Point",
        "coordinates": [
          107.5910848,
          -6.8956632
        ]
      },
      "id": "way/1286450090"
    },
    {
      "type": "Feature",
      "properties": {
        "@id": "node/1342928043",
        "name": "Hotel Patra Jasa",
        "tourism": "hotel"
      },
      "geometry": {
        "type": "Point",
        "coordinates": [
          107.6138659,
          -6.8889817
        ]
      },
      "id": "node/1342928043"
    },
    {
      "type": "Feature",
      "properties": {
        "@id": "node/1342944385",
        "name": "Hotel Utari",
        "tourism": "hotel"
      },
      "geometry": {
        "type": "Point",
        "coordinates": [
          107.6126245,
          -6.90074
        ]
      },
      "id": "node/1342944385"
    },
    {
      "type": "Feature",
      "properties": {
        "@id": "node/1342944393",
        "name": "Hotel Karmila",
        "tourism": "hotel"
      },
      "geometry": {
        "type": "Point",
        "coordinates": [
          107.6116316,
          -6.9028896
        ]
      },
      "id": "node/1342944393"
    },
    {
      "type": "Feature",
      "properties": {
        "@id": "node/1342948124",
        "name": "Hotel Halmahera",
        "tourism": "hotel"
      },
      "geometry": {
        "type": "Point",
        "coordinates": [
          107.616129,
          -6.907181
        ]
      },
      "id": "node/1342948124"
    },
    {
      "type": "Feature",
      "properties": {
        "@id": "node/1342948128",
        "name": "Hotel Gandasari",
        "tourism": "hotel"
      },
      "geometry": {
        "type": "Point",
        "coordinates": [
          107.6130004,
          -6.9078607
        ]
      },
      "id": "node/1342948128"
    },
    {
      "type": "Feature",
      "properties": {
        "@id": "node/1342970049",
        "name": "Hotel Royal Palace",
        "tourism": "hotel"
      },
      "geometry": {
        "type": "Point",
        "coordinates": [
          107.612419,
          -6.9173595
        ]
      },
      "id": "node/1342970049"
    },
    {
      "type": "Feature",
      "properties": {
        "@id": "node/1342970053",
        "name": "Hotel Royal Merdeka",
        "tourism": "hotel"
      },
      "geometry": {
        "type": "Point",
        "coordinates": [
          107.6107756,
          -6.9111142
        ]
      },
      "id": "node/1342970053"
    },
    {
      "type": "Feature",
      "properties": {
        "@id": "way/1370426942",
        "landuse": "tourism",
        "name": "Pia Hotel",
        "tourism": "hotel",
        "@geometry": "center"
      },
      "geometry": {
        "type": "Point",
        "coordinates": [
          107.6238053,
          -6.94987
        ]
      },
      "id": "way/1370426942"
    },
    {
      "type": "Feature",
      "properties": {
        "@id": "way/1370729232",
        "landuse": "commercial",
        "name": "Hotel Lingga",
        "tourism": "hotel",
        "@geometry": "center"
      },
      "geometry": {
        "type": "Point",
        "coordinates": [
          107.6268367,
          -6.9501485
        ]
      },
      "id": "way/1370729232"
    },
    {
      "type": "Feature",
      "properties": {
        "@id": "node/1381753562",
        "addr:city": "Bandung",
        "addr:housenumber": "390",
        "addr:postcode": "40135",
        "addr:street": "Jalan Ir. H. Juanda",
        "email": "Reservationsbandung@sheraton.com",
        "fax": "+62 22 2500301",
        "name": "Sheraton Bandung Hotel & Towers",
        "phone": "+62 22 2500303",
        "rooms": "156",
        "tourism": "hotel",
        "website": "https://www.marriott.com/hotels/travel/bdosi-sheraton-bandung-hotel-and-towers/"
      },
      "geometry": {
        "type": "Point",
        "coordinates": [
          107.6195436,
          -6.8743988
        ]
      },
      "id": "node/1381753562"
    },
    {
      "type": "Feature",
      "properties": {
        "@id": "node/1385463113",
        "name": "Wisma Putri Pocut Baren",
        "tourism": "motel"
      },
      "geometry": {
        "type": "Point",
        "coordinates": [
          107.6195556,
          -6.8852449
        ]
      },
      "id": "node/1385463113"
    },
    {
      "type": "Feature",
      "properties": {
        "@id": "way/1395143854",
        "building": "yes",
        "name": "Hotel Astria Graha",
        "tourism": "hotel",
        "@geometry": "center"
      },
      "geometry": {
        "type": "Point",
        "coordinates": [
          107.6104142,
          -6.9233477
        ]
      },
      "id": "way/1395143854"
    },
    {
      "type": "Feature",
      "properties": {
        "@id": "way/1409981523",
        "addr:city": "Bandung, Jawa Barat",
        "addr:housenumber": "2",
        "addr:postcode": "40111",
        "addr:street": "Jalan Merdeka",
        "addr:unit": "411",
        "brand": "L Hotel Bandung",
        "email": "reservation.bdg@el-hotels.com",
        "internet_access": "wlan",
        "internet_access:fee": "yes",
        "landuse": "commercial",
        "name": "L Hotel Bandung",
        "operator": "L Hotel Group",
        "rooms": "514",
        "stars": "4",
        "tourism": "hotel",
        "website": "https://bandung.el-hotels.com/",
        "@geometry": "center"
      },
      "geometry": {
        "type": "Point",
        "coordinates": [
          107.6106151,
          -6.9161047
        ]
      },
      "id": "way/1409981523"
    },
    {
      "type": "Feature",
      "properties": {
        "@id": "way/1417983396",
        "addr:city": "Bandung",
        "addr:housenumber": "18",
        "addr:street": "Jl. Ir. H.Djuanda",
        "landuse": "commercial",
        "name": "The Luxton",
        "tourism": "hotel",
        "@geometry": "center"
      },
      "geometry": {
        "type": "Point",
        "coordinates": [
          107.6113448,
          -6.9037761
        ]
      },
      "id": "way/1417983396"
    },
    {
      "type": "Feature",
      "properties": {
        "@id": "node/1586233214",
        "name": "Sari Ater Kamboti Bandung",
        "phone": "+62 222-011000",
        "tourism": "hotel",
        "website": "https://sariater-hotel.com/kamboti"
      },
      "geometry": {
        "type": "Point",
        "coordinates": [
          107.5800241,
          -6.8830236
        ]
      },
      "id": "node/1586233214"
    },
    {
      "type": "Feature",
      "properties": {
        "@id": "node/1587039078",
        "addr:city": "Bandung",
        "addr:street": "Jl. Surya Sumantri",
        "name": "The Majesty Hotel",
        "tourism": "hotel"
      },
      "geometry": {
        "type": "Point",
        "coordinates": [
          107.581017,
          -6.883156
        ]
      },
      "id": "node/1587039078"
    },
    {
      "type": "Feature",
      "properties": {
        "@id": "node/1655564498",
        "name": "Provence",
        "source": "Gmap",
        "tourism": "hotel"
      },
      "geometry": {
        "type": "Point",
        "coordinates": [
          107.584846,
          -6.8620761
        ]
      },
      "id": "node/1655564498"
    },
    {
      "type": "Feature",
      "properties": {
        "@id": "node/1700853213",
        "name": "Perdana Wisata",
        "tourism": "hotel",
        "website": "www.hotelperdanawisata.com"
      },
      "geometry": {
        "type": "Point",
        "coordinates": [
          107.6014738,
          -6.9201876
        ]
      },
      "id": "node/1700853213"
    },
    {
      "type": "Feature",
      "properties": {
        "@id": "node/1706574395",
        "name": "Hotel Agusta",
        "tourism": "hotel"
      },
      "geometry": {
        "type": "Point",
        "coordinates": [
          107.6337287,
          -6.8976004
        ]
      },
      "id": "node/1706574395"
    },
    {
      "type": "Feature",
      "properties": {
        "@id": "node/1706574396",
        "name": "Hotel Yehezkiel",
        "tourism": "hotel"
      },
      "geometry": {
        "type": "Point",
        "coordinates": [
          107.6325164,
          -6.8979998
        ]
      },
      "id": "node/1706574396"
    },
    {
      "type": "Feature",
      "properties": {
        "@id": "node/1785955514",
        "name": "Hotel California",
        "tourism": "motel"
      },
      "geometry": {
        "type": "Point",
        "coordinates": [
          107.6053253,
          -6.9037861
        ]
      },
      "id": "node/1785955514"
    },
    {
      "type": "Feature",
      "properties": {
        "@id": "node/1788564509",
        "name": "Otten Inn",
        "tourism": "motel"
      },
      "geometry": {
        "type": "Point",
        "coordinates": [
          107.5990484,
          -6.9013335
        ]
      },
      "id": "node/1788564509"
    },
    {
      "type": "Feature",
      "properties": {
        "@id": "node/1788564513",
        "name": "Otten Ville Boutique Hotel",
        "tourism": "hotel"
      },
      "geometry": {
        "type": "Point",
        "coordinates": [
          107.6007213,
          -6.9028932
        ]
      },
      "id": "node/1788564513"
    },
    {
      "type": "Feature",
      "properties": {
        "@id": "node/1801234292",
        "name": "Bumi Bhandawa",
        "tourism": "hotel"
      },
      "geometry": {
        "type": "Point",
        "coordinates": [
          107.6256947,
          -6.8840321
        ]
      },
      "id": "node/1801234292"
    },
    {
      "type": "Feature",
      "properties": {
        "@id": "node/1924435640",
        "name": "Sensa",
        "tourism": "hotel"
      },
      "geometry": {
        "type": "Point",
        "coordinates": [
          107.6049865,
          -6.8948421
        ]
      },
      "id": "node/1924435640"
    },
    {
      "type": "Feature",
      "properties": {
        "@id": "node/1924439599",
        "name": "Aston Tropicana",
        "stars": "4",
        "tourism": "hotel"
      },
      "geometry": {
        "type": "Point",
        "coordinates": [
          107.6036507,
          -6.8964744
        ]
      },
      "id": "node/1924439599"
    },
    {
      "type": "Feature",
      "properties": {
        "@id": "node/1924439614",
        "name": "Fave",
        "tourism": "hotel"
      },
      "geometry": {
        "type": "Point",
        "coordinates": [
          107.6036829,
          -6.896059
        ]
      },
      "id": "node/1924439614"
    },
    {
      "type": "Feature",
      "properties": {
        "@id": "node/1969331832",
        "name": "Bumi Saunggaling",
        "tourism": "hotel"
      },
      "geometry": {
        "type": "Point",
        "coordinates": [
          107.6093277,
          -6.9007662
        ]
      },
      "id": "node/1969331832"
    },
    {
      "type": "Feature",
      "properties": {
        "@id": "node/2016397751",
        "name": "Cherry Homes",
        "tourism": "hotel"
      },
      "geometry": {
        "type": "Point",
        "coordinates": [
          107.5839909,
          -6.8872528
        ]
      },
      "id": "node/2016397751"
    },
    {
      "type": "Feature",
      "properties": {
        "@id": "node/2039449490",
        "name": "Hotel Gegerkalong Asri",
        "tourism": "hotel"
      },
      "geometry": {
        "type": "Point",
        "coordinates": [
          107.5852847,
          -6.8682763
        ]
      },
      "id": "node/2039449490"
    },
    {
      "type": "Feature",
      "properties": {
        "@id": "node/2490687089",
        "name": "Papandayan",
        "tourism": "hotel"
      },
      "geometry": {
        "type": "Point",
        "coordinates": [
          107.6237011,
          -6.9231465
        ]
      },
      "id": "node/2490687089"
    },
    {
      "type": "Feature",
      "properties": {
        "@id": "node/2494627703",
        "name": "Parakan Wangi",
        "tourism": "hotel"
      },
      "geometry": {
        "type": "Point",
        "coordinates": [
          107.6280034,
          -6.9498041
        ]
      },
      "id": "node/2494627703"
    },
    {
      "type": "Feature",
      "properties": {
        "@id": "node/2494655270",
        "name": "The Summit Siliwangi",
        "tourism": "hotel"
      },
      "geometry": {
        "type": "Point",
        "coordinates": [
          107.6129293,
          -6.9077241
        ]
      },
      "id": "node/2494655270"
    },
    {
      "type": "Feature",
      "properties": {
        "@id": "node/3029767273",
        "tourism": "hotel"
      },
      "geometry": {
        "type": "Point",
        "coordinates": [
          107.6258097,
          -6.8664096
        ]
      },
      "id": "node/3029767273"
    },
    {
      "type": "Feature",
      "properties": {
        "@id": "node/3105373529",
        "addr:city": "Bandung",
        "addr:housenumber": "7",
        "addr:postcode": "40113",
        "addr:street": "Sumbawa",
        "name": "Meize Hotel - Jl. Sumbawa",
        "phone": "+62 22 426 3888",
        "tourism": "hotel",
        "website": "https://www.meizehotel.com/"
      },
      "geometry": {
        "type": "Point",
        "coordinates": [
          107.6178088,
          -6.9148648
        ]
      },
      "id": "node/3105373529"
    },
    {
      "type": "Feature",
      "properties": {
        "@id": "node/3269202627",
        "name": "Park Hotel",
        "tourism": "hotel"
      },
      "geometry": {
        "type": "Point",
        "coordinates": [
          107.6415674,
          -6.899096
        ]
      },
      "id": "node/3269202627"
    },
    {
      "type": "Feature",
      "properties": {
        "@id": "node/3353575236",
        "addr:housenumber": "269-275",
        "addr:postcode": "40154",
        "addr:street": "Jl Dr Setiabudi",
        "brand": "Mercure",
        "brand:wikidata": "Q1709809",
        "brand:wikipedia": "en:Mercure (hotel)",
        "name": "Mercure Bandung Setiabudi",
        "tourism": "hotel"
      },
      "geometry": {
        "type": "Point",
        "coordinates": [
          107.5950633,
          -6.8545699
        ]
      },
      "id": "node/3353575236"
    },
    {
      "type": "Feature",
      "properties": {
        "@id": "node/3365192832",
        "addr:city": "Bandung",
        "addr:street": "Surya Sumantri",
        "name": "Verona Palace Hotel",
        "tourism": "hotel"
      },
      "geometry": {
        "type": "Point",
        "coordinates": [
          107.5821297,
          -6.8891571
        ]
      },
      "id": "node/3365192832"
    },
    {
      "type": "Feature",
      "properties": {
        "@id": "node/3376282081",
        "addr:city": "Bandung",
        "addr:housenumber": "31",
        "addr:postcode": "40262",
        "addr:street": "Jalan Buah Batu",
        "name": "Sofyan Inn Specia",
        "tourism": "hotel"
      },
      "geometry": {
        "type": "Point",
        "coordinates": [
          107.6178928,
          -6.93168
        ]
      },
      "id": "node/3376282081"
    },
    {
      "type": "Feature",
      "properties": {
        "@id": "node/3376673101",
        "addr:city": "Bandung",
        "addr:housenumber": "156A",
        "addr:postcode": "40153",
        "addr:street": "Jalan Dr. Setiabudi",
        "name": "Amaris Hotel Setiabudhi",
        "ref": "Setiabudhi",
        "tourism": "hotel"
      },
      "geometry": {
        "type": "Point",
        "coordinates": [
          107.5956727,
          -6.8736729
        ]
      },
      "id": "node/3376673101"
    },
    {
      "type": "Feature",
      "properties": {
        "@id": "node/3376756789",
        "name": "Wisma Tubagus",
        "tourism": "guest_house"
      },
      "geometry": {
        "type": "Point",
        "coordinates": [
          107.6163121,
          -6.8853338
        ]
      },
      "id": "node/3376756789"
    },
    {
      "type": "Feature",
      "properties": {
        "@id": "node/3405488095",
        "addr:city": "Bandung",
        "addr:housenumber": "1 / 11",
        "addr:postcode": "40163",
        "addr:street": "Babakan Jeruk Indah",
        "name": "SM Residence Pasteur",
        "smoking": "outside",
        "tourism": "hotel"
      },
      "geometry": {
        "type": "Point",
        "coordinates": [
          107.5833177,
          -6.8850077
        ]
      },
      "id": "node/3405488095"
    },
    {
      "type": "Feature",
      "properties": {
        "@id": "node/3424716226",
        "name": "Vio Hotel",
        "tourism": "hotel"
      },
      "geometry": {
        "type": "Point",
        "coordinates": [
          107.5980564,
          -6.9008276
        ]
      },
      "id": "node/3424716226"
    },
    {
      "type": "Feature",
      "properties": {
        "@id": "node/3428599973",
        "name": "Tebu Hotel",
        "tourism": "hotel"
      },
      "geometry": {
        "type": "Point",
        "coordinates": [
          107.6202185,
          -6.9060828
        ]
      },
      "id": "node/3428599973"
    },
    {
      "type": "Feature",
      "properties": {
        "@id": "node/3429603280",
        "addr:city": "Bandung",
        "addr:housenumber": "191",
        "addr:street": "Jl. L. L. RE.Martadinata , Cihapit",
        "name": "Hotel Riau",
        "tourism": "hotel"
      },
      "geometry": {
        "type": "Point",
        "coordinates": [
          107.6277629,
          -6.9115915
        ]
      },
      "id": "node/3429603280"
    },
    {
      "type": "Feature",
      "properties": {
        "@id": "node/3436699526",
        "brand": "Pullman",
        "brand:wikidata": "Q3410757",
        "name": "Pullman",
        "stars": "5",
        "tourism": "hotel"
      },
      "geometry": {
        "type": "Point",
        "coordinates": [
          107.6175514,
          -6.9003506
        ]
      },
      "id": "node/3436699526"
    },
    {
      "type": "Feature",
      "properties": {
        "@id": "node/3506203980",
        "addr:city": "Bandung",
        "addr:street": "PETA",
        "name": "Grand Pasundan Convention Hotel",
        "smoking": "outside",
        "tourism": "hotel"
      },
      "geometry": {
        "type": "Point",
        "coordinates": [
          107.5934789,
          -6.9367875
        ]
      },
      "id": "node/3506203980"
    },
    {
      "type": "Feature",
      "properties": {
        "@id": "node/3733193725",
        "atm": "no",
        "internet_access": "wlan",
        "name": "patradissa hotel",
        "source": "survey",
        "tourism": "hotel"
      },
      "geometry": {
        "type": "Point",
        "coordinates": [
          107.601762,
          -6.911422
        ]
      },
      "id": "node/3733193725"
    },
    {
      "type": "Feature",
      "properties": {
        "@id": "node/3807724904",
        "addr:city": "Bandung",
        "addr:housenumber": "392-394",
        "addr:postcode": "40135",
        "addr:street": "Jalan Ir. H. Juanda",
        "name": "The Silk At Dago",
        "name:en": "The Silk",
        "tourism": "hotel"
      },
      "geometry": {
        "type": "Point",
        "coordinates": [
          107.6195926,
          -6.8737345
        ]
      },
      "id": "node/3807724904"
    },
    {
      "type": "Feature",
      "properties": {
        "@id": "node/3807746630",
        "name": "Puri Tomat",
        "tourism": "hotel"
      },
      "geometry": {
        "type": "Point",
        "coordinates": [
          107.6203726,
          -6.8713763
        ]
      },
      "id": "node/3807746630"
    },
    {
      "type": "Feature",
      "properties": {
        "@id": "node/3809369314",
        "name": "Kementerian Pertanian MESS/GUEST House",
        "tourism": "guest_house"
      },
      "geometry": {
        "type": "Point",
        "coordinates": [
          107.6197149,
          -6.8714219
        ]
      },
      "id": "node/3809369314"
    },
    {
      "type": "Feature",
      "properties": {
        "@id": "node/3809369329",
        "name": "Wirton Dago Hotel",
        "tourism": "hotel"
      },
      "geometry": {
        "type": "Point",
        "coordinates": [
          107.6201773,
          -6.8691116
        ]
      },
      "id": "node/3809369329"
    },
    {
      "type": "Feature",
      "properties": {
        "@id": "node/3809666546",
        "name": "Benua Hotel",
        "tourism": "hotel"
      },
      "geometry": {
        "type": "Point",
        "coordinates": [
          107.625909,
          -6.9329864
        ]
      },
      "id": "node/3809666546"
    },
    {
      "type": "Feature",
      "properties": {
        "@id": "node/3809732416",
        "addr:city": "Bandung",
        "addr:country": "ID",
        "addr:housenumber": "42",
        "addr:postcode": "40252",
        "addr:street": "Jalan Muhammad Toha",
        "name": "Bantal Guling Alun Alun",
        "phone": "+62224211425",
        "tourism": "guest_house"
      },
      "geometry": {
        "type": "Point",
        "coordinates": [
          107.606556,
          -6.9319114
        ]
      },
      "id": "node/3809732416"
    },
    {
      "type": "Feature",
      "properties": {
        "@id": "node/4143008395",
        "addr:street": "Jalan Soekarno-Hatta",
        "name": "Palem permai",
        "name:en": "Palem Permai",
        "tourism": "hostel"
      },
      "geometry": {
        "type": "Point",
        "coordinates": [
          107.6575683,
          -6.9377749
        ]
      },
      "id": "node/4143008395"
    },
    {
      "type": "Feature",
      "properties": {
        "@id": "node/4143034494",
        "addr:street": "Jalan Soekarno-Hatta",
        "name": "HOTEL METRO",
        "tourism": "hotel"
      },
      "geometry": {
        "type": "Point",
        "coordinates": [
          107.6555103,
          -6.9407736
        ]
      },
      "id": "node/4143034494"
    },
    {
      "type": "Feature",
      "properties": {
        "@id": "node/4150284489",
        "addr:street": "Jalan Lengkong Besar",
        "name": "Hotel Lengkong",
        "tourism": "hotel"
      },
      "geometry": {
        "type": "Point",
        "coordinates": [
          107.6117327,
          -6.9231252
        ]
      },
      "id": "node/4150284489"
    },
    {
      "type": "Feature",
      "properties": {
        "@id": "node/4263828828",
        "addr:housenumber": "35",
        "addr:postcode": "40154",
        "addr:street": "Jalan Dr. Setiabudi",
        "name": "Regata Hotel",
        "tourism": "hotel"
      },
      "geometry": {
        "type": "Point",
        "coordinates": [
          107.6005351,
          -6.8825827
        ]
      },
      "id": "node/4263828828"
    },
    {
      "type": "Feature",
      "properties": {
        "@id": "node/4267738966",
        "addr:city": "Bandung",
        "addr:housenumber": "#376",
        "addr:postcode": "40143",
        "addr:street": "Jalan Dr. Setiabudi",
        "name": "GH Universal Hotel",
        "tourism": "hotel"
      },
      "geometry": {
        "type": "Point",
        "coordinates": [
          107.5984922,
          -6.8493085
        ]
      },
      "id": "node/4267738966"
    },
    {
      "type": "Feature",
      "properties": {
        "@id": "node/4288729690",
        "addr:housenumber": "32",
        "addr:postcode": "40181",
        "addr:street": "Jalan Kebon Jati",
        "internet_access": "wlan",
        "name": "Fabu Hotel Bandung",
        "tourism": "hotel"
      },
      "geometry": {
        "type": "Point",
        "coordinates": [
          107.6019399,
          -6.9160701
        ]
      },
      "id": "node/4288729690"
    },
    {
      "type": "Feature",
      "properties": {
        "@id": "node/4326502122",
        "addr:city": "Bandung",
        "addr:housenumber": "#54",
        "addr:street": "Jl. Kebon Kawung, Pasir Kaliki, Cicendo",
        "name": "Zodiak",
        "tourism": "hotel"
      },
      "geometry": {
        "type": "Point",
        "coordinates": [
          107.5994831,
          -6.9123077
        ]
      },
      "id": "node/4326502122"
    },
    {
      "type": "Feature",
      "properties": {
        "@id": "node/4326504946",
        "addr:city": "Bandung",
        "addr:housenumber": "11",
        "addr:street": "Jalan H. Mesri , Kebon Kawung,",
        "name": "Scarlet Kebon Kawung",
        "tourism": "hotel"
      },
      "geometry": {
        "type": "Point",
        "coordinates": [
          107.6006976,
          -6.9120307
        ]
      },
      "id": "node/4326504946"
    },
    {
      "type": "Feature",
      "properties": {
        "@id": "node/4326512398",
        "addr:city": "Bandung",
        "addr:housenumber": "4-6",
        "addr:street": "Jl. Marjuk , Kebon Kawung",
        "name": "Serena Hotel",
        "tourism": "hotel"
      },
      "geometry": {
        "type": "Point",
        "coordinates": [
          107.6024868,
          -6.9118697
        ]
      },
      "id": "node/4326512398"
    },
    {
      "type": "Feature",
      "properties": {
        "@id": "node/4326513914",
        "addr:city": "Bandung",
        "addr:housenumber": "16",
        "addr:street": "Jalan Kebon Kawung , Pasirkaliki, Cicendo",
        "name": "Grand Sovia Hotel",
        "tourism": "hotel"
      },
      "geometry": {
        "type": "Point",
        "coordinates": [
          107.602934,
          -6.912469
        ]
      },
      "id": "node/4326513914"
    },
    {
      "type": "Feature",
      "properties": {
        "@id": "node/4327194341",
        "addr:city": "Bandung",
        "addr:street": "Jl. Ciumbuleuit, Hegarmanah",
        "name": "Parahyangan Residences",
        "tourism": "guest_house"
      },
      "geometry": {
        "type": "Point",
        "coordinates": [
          107.6039296,
          -6.8772867
        ]
      },
      "id": "node/4327194341"
    },
    {
      "type": "Feature",
      "properties": {
        "@id": "node/4327220812",
        "addr:city": "Bandung",
        "addr:housenumber": "8",
        "addr:street": "Jalan Bukit Tunggul, Ciumbuleuit, Cidadap",
        "name": "U Village Hotel and Villa",
        "tourism": "motel"
      },
      "geometry": {
        "type": "Point",
        "coordinates": [
          107.6059173,
          -6.8724159
        ]
      },
      "id": "node/4327220812"
    },
    {
      "type": "Feature",
      "properties": {
        "@id": "node/4328071039",
        "addr:city": "Bandung",
        "addr:housenumber": "11",
        "addr:street": "Jl. Ksatriaan",
        "name": "Summerbird - Bed and Brasserie",
        "tourism": "hotel"
      },
      "geometry": {
        "type": "Point",
        "coordinates": [
          107.5966492,
          -6.9120462
        ]
      },
      "id": "node/4328071039"
    },
    {
      "type": "Feature",
      "properties": {
        "@id": "node/4328088067",
        "addr:city": "Bandung",
        "addr:housenumber": "78",
        "addr:street": "Jalan HOS. Tjokroaminoto",
        "name": "D'batoe Boutique Hotel",
        "tourism": "hotel"
      },
      "geometry": {
        "type": "Point",
        "coordinates": [
          107.5979591,
          -6.910208
        ]
      },
      "id": "node/4328088067"
    },
    {
      "type": "Feature",
      "properties": {
        "@id": "node/4328094416",
        "addr:city": "Bandung, Jawa Barat",
        "addr:housenumber": "100",
        "addr:street": "Jalan Pasirkaliki , Pasirkaliki, Cicendo",
        "name": "Grand Pacific Hotel",
        "tourism": "hotel"
      },
      "geometry": {
        "type": "Point",
        "coordinates": [
          107.5978586,
          -6.9088775
        ]
      },
      "id": "node/4328094416"
    },
    {
      "type": "Feature",
      "properties": {
        "@id": "node/4328099655",
        "addr:city": "Bandung",
        "addr:housenumber": "36-42",
        "addr:street": "Jl. Pasirkaliki",
        "name": "Hotel Citradream Bandung",
        "tourism": "hotel"
      },
      "geometry": {
        "type": "Point",
        "coordinates": [
          107.5980388,
          -6.9119051
        ]
      },
      "id": "node/4328099655"
    },
    {
      "type": "Feature",
      "properties": {
        "@id": "node/4328119383",
        "addr:city": "Bandung, Jawa Barat",
        "addr:housenumber": "85",
        "addr:street": "Jl. Gardujati, Kb. Jeruk, Andir,",
        "name": "Apartment Gardujati / Guest House",
        "tourism": "guest_house"
      },
      "geometry": {
        "type": "Point",
        "coordinates": [
          107.5981664,
          -6.9168351
        ]
      },
      "id": "node/4328119383"
    },
    {
      "type": "Feature",
      "properties": {
        "@id": "node/4329275094",
        "addr:city": "Bandung",
        "addr:housenumber": "144A",
        "addr:street": "Jl. L. L. RE.Martadinata, Merdeka",
        "name": "Hotel Kartika",
        "tourism": "hotel"
      },
      "geometry": {
        "type": "Point",
        "coordinates": [
          107.6283637,
          -6.9125196
        ]
      },
      "id": "node/4329275094"
    },
    {
      "type": "Feature",
      "properties": {
        "@id": "node/4329680561",
        "addr:city": "Bandung",
        "addr:housenumber": "30-32",
        "addr:street": "Jalan Dr. Rum",
        "name": "Hotel Imperium Bandung",
        "tourism": "hotel"
      },
      "geometry": {
        "type": "Point",
        "coordinates": [
          107.6005941,
          -6.9053468
        ]
      },
      "id": "node/4329680561"
    },
    {
      "type": "Feature",
      "properties": {
        "@id": "node/4354994539",
        "addr:city": "Bandung",
        "addr:housenumber": "32",
        "addr:postcode": "40112",
        "addr:street": "Jl. Veteran",
        "name": "Vio Veteran",
        "tourism": "hotel"
      },
      "geometry": {
        "type": "Point",
        "coordinates": [
          107.6150293,
          -6.9192675
        ]
      },
      "id": "node/4354994539"
    },
    {
      "type": "Feature",
      "properties": {
        "@id": "node/4364208638",
        "addr:housenumber": "36",
        "addr:postcode": "40263",
        "addr:street": "Jalan Halimun",
        "name": "Malaka Hotel",
        "tourism": "hotel"
      },
      "geometry": {
        "type": "Point",
        "coordinates": [
          107.6233442,
          -6.9271196
        ]
      },
      "id": "node/4364208638"
    },
    {
      "type": "Feature",
      "properties": {
        "@id": "node/4364221707",
        "addr:city": "Badung",
        "addr:housenumber": "311",
        "addr:postcode": "40132",
        "addr:street": "Jalan Ir. H. Juanda",
        "name": "Bukit Dago Business Hotel",
        "tourism": "hotel"
      },
      "geometry": {
        "type": "Point",
        "coordinates": [
          107.617342,
          -6.8772184
        ]
      },
      "id": "node/4364221707"
    },
    {
      "type": "Feature",
      "properties": {
        "@id": "node/4364264976",
        "addr:city": "Bandung",
        "addr:housenumber": "31-25",
        "addr:postcode": "40111",
        "addr:street": "Jalan Naripan",
        "name": "Hotel New Naripan",
        "tourism": "hotel"
      },
      "geometry": {
        "type": "Point",
        "coordinates": [
          107.6118937,
          -6.9201218
        ]
      },
      "id": "node/4364264976"
    },
    {
      "type": "Feature",
      "properties": {
        "@id": "node/4364268209",
        "addr:city": "Bandung",
        "addr:housenumber": "51",
        "addr:postcode": "40133",
        "addr:street": "Jalan Surapati",
        "name": "Vio Surapaati",
        "tourism": "hotel"
      },
      "geometry": {
        "type": "Point",
        "coordinates": [
          107.6196592,
          -6.8988861
        ]
      },
      "id": "node/4364268209"
    },
    {
      "type": "Feature",
      "properties": {
        "@id": "node/4364351816",
        "addr:city": "Bandung",
        "addr:housenumber": "46",
        "addr:postcode": "40115",
        "addr:street": "Jalan Ir. H. Juanda",
        "brand": "Four Points by Sheraton",
        "brand:wikidata": "Q1439966",
        "name": "Four Points by Sheraton Bandung",
        "rooms": "162",
        "short_name": "Four Points",
        "tourism": "hotel"
      },
      "geometry": {
        "type": "Point",
        "coordinates": [
          107.6122508,
          -6.9013446
        ]
      },
      "id": "node/4364351816"
    },
    {
      "type": "Feature",
      "properties": {
        "@id": "node/4364431589",
        "addr:city": "Bandung",
        "addr:housenumber": "99-101",
        "addr:postcode": "40111",
        "addr:street": "Jalan Braga",
        "branch": "Braga",
        "name": "favehotel",
        "tourism": "hotel"
      },
      "geometry": {
        "type": "Point",
        "coordinates": [
          107.6079722,
          -6.9172142
        ]
      },
      "id": "node/4364431589"
    },
    {
      "type": "Feature",
      "properties": {
        "@id": "node/4365642382",
        "addr:city": "Bandung",
        "addr:housenumber": "2",
        "addr:postcode": "40262",
        "addr:street": "Jalan Malabar",
        "name": "Grand Malabar Hotel",
        "tourism": "hotel"
      },
      "geometry": {
        "type": "Point",
        "coordinates": [
          107.6243107,
          -6.9199991
        ]
      },
      "id": "node/4365642382"
    },
    {
      "type": "Feature",
      "properties": {
        "@id": "node/4365686176",
        "addr:city": "Bandung",
        "addr:housenumber": "8-10",
        "addr:postcode": "40161",
        "addr:street": "Jalan Sederhana",
        "name": "Ardan Hotel",
        "tourism": "hotel"
      },
      "geometry": {
        "type": "Point",
        "coordinates": [
          107.5989244,
          -6.8936181
        ]
      },
      "id": "node/4365686176"
    },
    {
      "type": "Feature",
      "properties": {
        "@id": "node/4365828036",
        "addr:city": "Bandung",
        "addr:housenumber": "133",
        "addr:postcode": "40141",
        "addr:street": "Jalan Prof. Dr. Sutami",
        "name": "Zodiak Hotel",
        "tourism": "hotel"
      },
      "geometry": {
        "type": "Point",
        "coordinates": [
          107.5838438,
          -6.8792749
        ]
      },
      "id": "node/4365828036"
    },
    {
      "type": "Feature",
      "properties": {
        "@id": "node/4365845390",
        "addr:city": "Bandung",
        "addr:housenumber": "207",
        "addr:postcode": "40115",
        "addr:street": "Jalan R.E. Martadinata",
        "name": "Grand Tebu Hotel by Willson Hotels",
        "tourism": "hotel"
      },
      "geometry": {
        "type": "Point",
        "coordinates": [
          107.6290283,
          -6.9129586
        ]
      },
      "id": "node/4365845390"
    },
    {
      "type": "Feature",
      "properties": {
        "@id": "node/4365862470",
        "addr:city": "Bandung",
        "addr:housenumber": "460",
        "addr:postcode": "40242",
        "addr:street": "Jalan Oto Iskandardinata",
        "name": "D'Best Hotel",
        "tourism": "hotel"
      },
      "geometry": {
        "type": "Point",
        "coordinates": [
          107.6033774,
          -6.9303323
        ]
      },
      "id": "node/4365862470"
    },
    {
      "type": "Feature",
      "properties": {
        "@id": "node/4365868418",
        "addr:city": "Bandung",
        "addr:housenumber": "45B",
        "addr:postcode": "40262",
        "addr:street": "Jalan Gatot Subroto",
        "name": "Harapan Indah Hotel",
        "tourism": "hotel"
      },
      "geometry": {
        "type": "Point",
        "coordinates": [
          107.621572,
          -6.9223613
        ]
      },
      "id": "node/4365868418"
    },
    {
      "type": "Feature",
      "properties": {
        "@id": "node/4365969235",
        "addr:city": "Bandung",
        "addr:housenumber": "76-80",
        "addr:postcode": "40261",
        "addr:street": "Jalan Lengkong Kecil",
        "internet_access": "wlan",
        "internet_access:fee": "no",
        "name": "De'Rain",
        "operator": "Dafam",
        "stars": "3",
        "tourism": "hotel",
        "wheelchair": "no"
      },
      "geometry": {
        "type": "Point",
        "coordinates": [
          107.6165669,
          -6.9237412
        ]
      },
      "id": "node/4365969235"
    },
    {
      "type": "Feature",
      "properties": {
        "@id": "node/4365975820",
        "addr:city": "Bandung",
        "addr:housenumber": "50",
        "addr:postcode": "40171",
        "addr:street": "Jalan Pasir Kaliki",
        "name": "Zodiak Hotel",
        "tourism": "hotel"
      },
      "geometry": {
        "type": "Point",
        "coordinates": [
          107.5980357,
          -6.9120282
        ]
      },
      "id": "node/4365975820"
    },
    {
      "type": "Feature",
      "properties": {
        "@id": "node/4366003613",
        "addr:city": "Bandung, Jawa Barat",
        "addr:housenumber": "18 A-B",
        "addr:postcode": "40171",
        "addr:street": "Jalan Westhoff",
        "name": "De Hoff Cihampelas Cottage",
        "tourism": "hotel"
      },
      "geometry": {
        "type": "Point",
        "coordinates": [
          107.5984379,
          -6.9023262
        ]
      },
      "id": "node/4366003613"
    },
    {
      "type": "Feature",
      "properties": {
        "@id": "node/4366036884",
        "addr:city": "Bandung",
        "addr:housenumber": "3",
        "addr:postcode": "40115",
        "addr:street": "Jalan Bahureksa",
        "name": "Ivory by Ayola Hotel",
        "tourism": "hotel"
      },
      "geometry": {
        "type": "Point",
        "coordinates": [
          107.613954,
          -6.9052505
        ]
      },
      "id": "node/4366036884"
    },
    {
      "type": "Feature",
      "properties": {
        "@id": "node/4366160271",
        "addr:city": "Bandung",
        "addr:housenumber": "24",
        "addr:postcode": "40621",
        "addr:street": "Jalan Pangarang",
        "name": "Raffleshom Hotel",
        "tourism": "hotel"
      },
      "geometry": {
        "type": "Point",
        "coordinates": [
          107.6102761,
          -6.9244626
        ]
      },
      "id": "node/4366160271"
    },
    {
      "type": "Feature",
      "properties": {
        "@id": "node/4366211031",
        "addr:city": "bandung",
        "addr:housenumber": "160",
        "addr:postcode": "40113",
        "addr:street": "Jalan R.E. Martadinata",
        "name": "Hotel Dafam Rio",
        "tourism": "hotel"
      },
      "geometry": {
        "type": "Point",
        "coordinates": [
          107.6293398,
          -6.9143965
        ]
      },
      "id": "node/4366211031"
    },
    {
      "type": "Feature",
      "properties": {
        "@id": "node/4366500173",
        "addr:city": "Bandung",
        "addr:housenumber": "108A",
        "addr:postcode": "40252",
        "addr:street": "Jalan Dewi Sartika",
        "name": "Arimbi Dewi Sartika",
        "tourism": "hotel"
      },
      "geometry": {
        "type": "Point",
        "coordinates": [
          107.6055701,
          -6.9297717
        ]
      },
      "id": "node/4366500173"
    },
    {
      "type": "Feature",
      "properties": {
        "@id": "node/4366529015",
        "addr:city": "Bandung",
        "addr:housenumber": "222",
        "addr:postcode": "40131",
        "addr:street": "Jalan Cihampelas",
        "name": "Cihampelas hotel 2",
        "tourism": "hotel"
      },
      "geometry": {
        "type": "Point",
        "coordinates": [
          107.6042626,
          -6.8900307
        ]
      },
      "id": "node/4366529015"
    },
    {
      "type": "Feature",
      "properties": {
        "@id": "node/4366542977",
        "addr:city": "Bandung",
        "addr:housenumber": "29-32",
        "addr:postcode": "40161",
        "addr:street": "Paskal Hyper Square Blok D, Jl. Pasar Kaliki",
        "name": "Hyper Inn",
        "tourism": "hotel"
      },
      "geometry": {
        "type": "Point",
        "coordinates": [
          107.5941443,
          -6.9142778
        ]
      },
      "id": "node/4366542977"
    },
    {
      "type": "Feature",
      "properties": {
        "@id": "node/4367108753",
        "addr:city": "Bandung",
        "addr:housenumber": "16",
        "addr:postcode": "40161",
        "addr:street": "Jalan Sukajadi",
        "name": "Zest Hotel",
        "tourism": "hotel"
      },
      "geometry": {
        "type": "Point",
        "coordinates": [
          107.5974404,
          -6.8953346
        ]
      },
      "id": "node/4367108753"
    },
    {
      "type": "Feature",
      "properties": {
        "@id": "node/4367119795",
        "addr:city": "Bandung",
        "addr:housenumber": "240",
        "addr:postcode": "40131",
        "addr:street": "Jalan Cihampelas",
        "name": "Cihampelas Hotel 1",
        "tourism": "hotel"
      },
      "geometry": {
        "type": "Point",
        "coordinates": [
          107.6041305,
          -6.8889008
        ]
      },
      "id": "node/4367119795"
    },
    {
      "type": "Feature",
      "properties": {
        "@id": "node/4367137267",
        "addr:city": "Bandung",
        "addr:housenumber": "41",
        "addr:postcode": "40262",
        "addr:street": "Jalan Gatot Subroto",
        "name": "dPalma Hotel",
        "tourism": "hotel"
      },
      "geometry": {
        "type": "Point",
        "coordinates": [
          107.6206005,
          -6.9226427
        ]
      },
      "id": "node/4367137267"
    },
    {
      "type": "Feature",
      "properties": {
        "@id": "node/4367194151",
        "addr:city": "Bandung",
        "addr:housenumber": "10",
        "addr:street": "Jalan Hasanudin",
        "name": "Namin Hotel",
        "tourism": "hotel"
      },
      "geometry": {
        "type": "Point",
        "coordinates": [
          107.6144867,
          -6.8949349
        ]
      },
      "id": "node/4367194151"
    },
    {
      "type": "Feature",
      "properties": {
        "@id": "node/4367285388",
        "addr:city": "Bandung",
        "addr:housenumber": "414",
        "addr:postcode": "40281",
        "addr:street": "Jalan Ibrahim Adji",
        "name": "Idea's Hotel",
        "tourism": "hotel"
      },
      "geometry": {
        "type": "Point",
        "coordinates": [
          107.6417377,
          -6.9422992
        ]
      },
      "id": "node/4367285388"
    },
    {
      "type": "Feature",
      "properties": {
        "@id": "node/4367306824",
        "addr:city": "Bandung",
        "addr:housenumber": "5",
        "addr:postcode": "40115",
        "addr:street": "Jalan Tirtayasa",
        "name": "M Premiere Hotel",
        "tourism": "hotel"
      },
      "geometry": {
        "type": "Point",
        "coordinates": [
          107.6126153,
          -6.9025113
        ]
      },
      "id": "node/4367306824"
    },
    {
      "type": "Feature",
      "properties": {
        "@id": "node/4367331942",
        "addr:city": "Bandung",
        "addr:housenumber": "34",
        "addr:postcode": "40181",
        "addr:street": "Jalan Ence Ajis",
        "name": "Unique Guesthouse 1",
        "tourism": "hotel"
      },
      "geometry": {
        "type": "Point",
        "coordinates": [
          107.5998169,
          -6.9187466
        ]
      },
      "id": "node/4367331942"
    },
    {
      "type": "Feature",
      "properties": {
        "@id": "node/4367333994",
        "addr:city": "Bandung",
        "addr:housenumber": "27",
        "addr:postcode": "40132",
        "addr:street": "Jalan Dipatiukur",
        "name": "De'qur Hotel",
        "tourism": "hotel"
      },
      "geometry": {
        "type": "Point",
        "coordinates": [
          107.6165128,
          -6.8955675
        ]
      },
      "id": "node/4367333994"
    },
    {
      "type": "Feature",
      "properties": {
        "@id": "node/4367336310",
        "addr:city": "Bandung",
        "addr:housenumber": "791",
        "addr:postcode": "40294",
        "addr:street": "Jalan Soekarno Hatta",
        "name": "Grand Cordela Hotel",
        "tourism": "hotel"
      },
      "geometry": {
        "type": "Point",
        "coordinates": [
          107.687952,
          -6.9370389
        ]
      },
      "id": "node/4367336310"
    },
    {
      "type": "Feature",
      "properties": {
        "@id": "node/4367339333",
        "addr:city": "Bandung",
        "addr:housenumber": "268",
        "addr:postcode": "40154",
        "addr:street": "Jalan Dr. Setiabudi",
        "name": "Travello Hotel",
        "tourism": "hotel"
      },
      "geometry": {
        "type": "Point",
        "coordinates": [
          107.5954536,
          -6.8613442
        ]
      },
      "id": "node/4367339333"
    },
    {
      "type": "Feature",
      "properties": {
        "@id": "node/4367346832",
        "addr:city": "Bandung",
        "addr:housenumber": "84",
        "addr:postcode": "40261",
        "addr:street": "Jalan Lengkong Kecil",
        "internet_access": "wlan",
        "internet_access:fee": "no",
        "name": "VELeZA",
        "operator": "Veleza Hotel",
        "stars": "3",
        "tourism": "hotel",
        "wheelchair": "no"
      },
      "geometry": {
        "type": "Point",
        "coordinates": [
          107.6169092,
          -6.9237306
        ]
      },
      "id": "node/4367346832"
    },
    {
      "type": "Feature",
      "properties": {
        "@id": "node/4367377390",
        "addr:city": "Bandung",
        "addr:housenumber": "4-6",
        "addr:postcode": "40162",
        "addr:street": "Jalan Sukaresmi",
        "name": "The Victoria Luxurious Guesthouse",
        "tourism": "hotel"
      },
      "geometry": {
        "type": "Point",
        "coordinates": [
          107.5936611,
          -6.8789881
        ]
      },
      "id": "node/4367377390"
    },
    {
      "type": "Feature",
      "properties": {
        "@id": "node/4367386607",
        "addr:city": "Bandung",
        "addr:housenumber": "1",
        "addr:postcode": "40264",
        "addr:street": "Jalan Reog",
        "name": "The Eight",
        "tourism": "hotel"
      },
      "geometry": {
        "type": "Point",
        "coordinates": [
          107.6323746,
          -6.9363011
        ]
      },
      "id": "node/4367386607"
    },
    {
      "type": "Feature",
      "properties": {
        "@id": "node/4367403002",
        "addr:city": "Bandung, Jawa Barat",
        "addr:housenumber": "1",
        "addr:postcode": "40135",
        "addr:street": "Jalan Sangkuriang",
        "name": "House Sangkuriang",
        "tourism": "hotel"
      },
      "geometry": {
        "type": "Point",
        "coordinates": [
          107.6116992,
          -6.8845803
        ]
      },
      "id": "node/4367403002"
    },
    {
      "type": "Feature",
      "properties": {
        "@id": "node/4367415073",
        "addr:city": "Bandung",
        "addr:housenumber": "7",
        "addr:postcode": "40164",
        "addr:street": "Jalan Lemah Neundeut",
        "name": "Garden Permata Hote",
        "tourism": "hotel"
      },
      "geometry": {
        "type": "Point",
        "coordinates": [
          107.5809045,
          -6.8825448
        ]
      },
      "id": "node/4367415073"
    },
    {
      "type": "Feature",
      "properties": {
        "@id": "node/4367486386",
        "addr:city": "Bandung",
        "addr:housenumber": "27",
        "addr:postcode": "40132",
        "addr:street": "Jalan Tengku Angkasa",
        "name": "Sofia House Dago Hotel",
        "tourism": "hotel"
      },
      "geometry": {
        "type": "Point",
        "coordinates": [
          107.6160848,
          -6.8912551
        ]
      },
      "id": "node/4367486386"
    },
    {
      "type": "Feature",
      "properties": {
        "@id": "node/4367492914",
        "addr:city": "Bandung",
        "addr:housenumber": "6",
        "addr:postcode": "40115",
        "addr:street": "Jalan Madura",
        "name": "Noor Hotel",
        "tourism": "hotel"
      },
      "geometry": {
        "type": "Point",
        "coordinates": [
          107.6192545,
          -6.9070748
        ]
      },
      "id": "node/4367492914"
    },
    {
      "type": "Feature",
      "properties": {
        "@id": "node/4367499145",
        "name": "D' River Guest House",
        "tourism": "hotel"
      },
      "geometry": {
        "type": "Point",
        "coordinates": [
          107.6043448,
          -6.8862417
        ]
      },
      "id": "node/4367499145"
    },
    {
      "type": "Feature",
      "properties": {
        "@id": "node/4367529941",
        "addr:city": "Bandung",
        "addr:housenumber": "76",
        "addr:postcode": "40267",
        "addr:street": "Jalan Babakan Jeruk 1",
        "name": "Orange Home's Syariah",
        "tourism": "hotel"
      },
      "geometry": {
        "type": "Point",
        "coordinates": [
          107.5833566,
          -6.889021
        ]
      },
      "id": "node/4367529941"
    },
    {
      "type": "Feature",
      "properties": {
        "@id": "node/4367950798",
        "addr:city": "Bandung",
        "addr:housenumber": "81-83",
        "addr:postcode": "40181.",
        "addr:street": "Jalan Gardujati",
        "name": "D'sovia Hotel",
        "tourism": "hotel"
      },
      "geometry": {
        "type": "Point",
        "coordinates": [
          107.5980546,
          -6.9172253
        ]
      },
      "id": "node/4367950798"
    },
    {
      "type": "Feature",
      "properties": {
        "@id": "node/4367985579",
        "addr:city": "Bandung",
        "addr:housenumber": "39A",
        "addr:postcode": "40135",
        "addr:street": "Jl. Tubagus Ismail VIII",
        "name": "Dago's Hill Hotel",
        "tourism": "hotel"
      },
      "geometry": {
        "type": "Point",
        "coordinates": [
          107.6213632,
          -6.8828975
        ]
      },
      "id": "node/4367985579"
    },
    {
      "type": "Feature",
      "properties": {
        "@id": "node/4368072361",
        "addr:city": "Cimahi",
        "addr:housenumber": "14",
        "addr:postcode": "40535",
        "addr:street": "Jl. Raya Cimindi",
        "name": "Hotel Endah Parahyangan",
        "tourism": "hotel"
      },
      "geometry": {
        "type": "Point",
        "coordinates": [
          107.5681663,
          -6.908747
        ]
      },
      "id": "node/4368072361"
    },
    {
      "type": "Feature",
      "properties": {
        "@id": "node/4368082307",
        "addr:city": "Bandung",
        "addr:housenumber": "130-134",
        "addr:postcode": "40153",
        "addr:street": "Jalan Dr. Setiabudi",
        "name": "Grand Setiabudi Hotel & Apartment",
        "tourism": "hotel"
      },
      "geometry": {
        "type": "Point",
        "coordinates": [
          107.5966057,
          -6.8749468
        ]
      },
      "id": "node/4368082307"
    },
    {
      "type": "Feature",
      "properties": {
        "@id": "node/4368154959",
        "addr:city": "Bandung",
        "addr:housenumber": "23",
        "addr:postcode": "40171",
        "addr:street": "Jalan Cihampelas",
        "brand": "Novotel",
        "brand:wikidata": "Q420545",
        "name": "Novotel Bandung",
        "operator": "Accor",
        "stars": "4",
        "tourism": "hotel"
      },
      "geometry": {
        "type": "Point",
        "coordinates": [
          107.6040474,
          -6.9048427
        ]
      },
      "id": "node/4368154959"
    },
    {
      "type": "Feature",
      "properties": {
        "@id": "node/4368184538",
        "name": "Lotus Hotel",
        "tourism": "hotel"
      },
      "geometry": {
        "type": "Point",
        "coordinates": [
          107.6209847,
          -6.8807512
        ]
      },
      "id": "node/4368184538"
    },
    {
      "type": "Feature",
      "properties": {
        "@id": "node/4368836119",
        "name": "Fullmar House",
        "tourism": "hotel"
      },
      "geometry": {
        "type": "Point",
        "coordinates": [
          107.5832957,
          -6.8855054
        ]
      },
      "id": "node/4368836119"
    },
    {
      "type": "Feature",
      "properties": {
        "@id": "node/4368869499",
        "check_date": "2025-05-10",
        "name": "Asoka Hotel",
        "tourism": "hotel"
      },
      "geometry": {
        "type": "Point",
        "coordinates": [
          107.6129377,
          -6.9279883
        ]
      },
      "id": "node/4368869499"
    },
    {
      "type": "Feature",
      "properties": {
        "@id": "node/4368870949",
        "name": "Hotel Ilos",
        "tourism": "hotel"
      },
      "geometry": {
        "type": "Point",
        "coordinates": [
          107.5844269,
          -6.8909513
        ]
      },
      "id": "node/4368870949"
    },
    {
      "type": "Feature",
      "properties": {
        "@id": "node/4368872127",
        "name": "Amalio Hotel",
        "tourism": "hotel"
      },
      "geometry": {
        "type": "Point",
        "coordinates": [
          107.633553,
          -6.8978624
        ]
      },
      "id": "node/4368872127"
    },
    {
      "type": "Feature",
      "properties": {
        "@id": "node/4368900414",
        "name": "Hotel Danoufa",
        "tourism": "hotel"
      },
      "geometry": {
        "type": "Point",
        "coordinates": [
          107.6197747,
          -6.8959957
        ]
      },
      "id": "node/4368900414"
    },
    {
      "type": "Feature",
      "properties": {
        "@id": "node/4368902095",
        "name": "Arwiga Hotel and Convention",
        "tourism": "hotel"
      },
      "geometry": {
        "type": "Point",
        "coordinates": [
          107.5991368,
          -6.8922096
        ]
      },
      "id": "node/4368902095"
    },
    {
      "type": "Feature",
      "properties": {
        "@id": "node/4368904700",
        "name": "Hotel Cihampelas 3",
        "tourism": "hotel"
      },
      "geometry": {
        "type": "Point",
        "coordinates": [
          107.6038967,
          -6.8884875
        ]
      },
      "id": "node/4368904700"
    },
    {
      "type": "Feature",
      "properties": {
        "@id": "node/4368992655",
        "name": "Hotel Corsica",
        "tourism": "hotel"
      },
      "geometry": {
        "type": "Point",
        "coordinates": [
          107.6283299,
          -6.9045086
        ]
      },
      "id": "node/4368992655"
    },
    {
      "type": "Feature",
      "properties": {
        "@id": "node/4369159158",
        "name": "Sweet Karina Hotel",
        "tourism": "hotel"
      },
      "geometry": {
        "type": "Point",
        "coordinates": [
          107.5844659,
          -6.8863872
        ]
      },
      "id": "node/4369159158"
    },
    {
      "type": "Feature",
      "properties": {
        "@id": "node/4369304563",
        "name": "Hotel Royal Dago",
        "tourism": "hotel"
      },
      "geometry": {
        "type": "Point",
        "coordinates": [
          107.6134726,
          -6.8866376
        ]
      },
      "id": "node/4369304563"
    },
    {
      "type": "Feature",
      "properties": {
        "@id": "node/4369754653",
        "name": "Nandya Hotel",
        "tourism": "hotel"
      },
      "geometry": {
        "type": "Point",
        "coordinates": [
          107.6099225,
          -6.9234092
        ]
      },
      "id": "node/4369754653"
    },
    {
      "type": "Feature",
      "properties": {
        "@id": "node/4369854694",
        "name": "Asmila Boutique Hotel",
        "tourism": "hotel"
      },
      "geometry": {
        "type": "Point",
        "coordinates": [
          107.6001959,
          -6.8821468
        ]
      },
      "id": "node/4369854694"
    },
    {
      "type": "Feature",
      "properties": {
        "@id": "node/4369877696",
        "name": "El Cavana Hotel",
        "tourism": "hotel"
      },
      "geometry": {
        "type": "Point",
        "coordinates": [
          107.5987599,
          -6.9148979
        ]
      },
      "id": "node/4369877696"
    },
    {
      "type": "Feature",
      "properties": {
        "@id": "node/4370117219",
        "name": "Arinda Guest House",
        "tourism": "hotel"
      },
      "geometry": {
        "type": "Point",
        "coordinates": [
          107.6494895,
          -6.9100918
        ]
      },
      "id": "node/4370117219"
    },
    {
      "type": "Feature",
      "properties": {
        "@id": "node/4370125443",
        "name": "Hotel 88 Bandung Kopo",
        "tourism": "hotel"
      },
      "geometry": {
        "type": "Point",
        "coordinates": [
          107.5858215,
          -6.951638
        ]
      },
      "id": "node/4370125443"
    },
    {
      "type": "Feature",
      "properties": {
        "@id": "node/4370151162",
        "name": "HOTEL WISMA DAGO",
        "name:en": "Wisma",
        "tourism": "hotel"
      },
      "geometry": {
        "type": "Point",
        "coordinates": [
          107.611878,
          -6.894442
        ]
      },
      "id": "node/4370151162"
    },
    {
      "type": "Feature",
      "properties": {
        "@id": "node/4370162206",
        "name": "Vio Cihampelas",
        "tourism": "hotel"
      },
      "geometry": {
        "type": "Point",
        "coordinates": [
          107.6041481,
          -6.8984858
        ]
      },
      "id": "node/4370162206"
    },
    {
      "type": "Feature",
      "properties": {
        "@id": "node/4370175009",
        "name": "Excellent Seven Boutique Hotel",
        "tourism": "hotel"
      },
      "geometry": {
        "type": "Point",
        "coordinates": [
          107.5995703,
          -6.9010747
        ]
      },
      "id": "node/4370175009"
    },
    {
      "type": "Feature",
      "properties": {
        "@id": "node/4370179384",
        "check_date": "2024-03-22",
        "name": "Hotel Grand Kopo",
        "tourism": "hotel"
      },
      "geometry": {
        "type": "Point",
        "coordinates": [
          107.5953771,
          -6.9366158
        ]
      },
      "id": "node/4370179384"
    },
    {
      "type": "Feature",
      "properties": {
        "@id": "node/4370470049",
        "name": "Zodiak@Kebon Jati",
        "tourism": "hotel"
      },
      "geometry": {
        "type": "Point",
        "coordinates": [
          107.6009259,
          -6.9160743
        ]
      },
      "id": "node/4370470049"
    },
    {
      "type": "Feature",
      "properties": {
        "@id": "node/4370481546",
        "name": "Bali Indah Hotel",
        "tourism": "hotel"
      },
      "geometry": {
        "type": "Point",
        "coordinates": [
          107.6151956,
          -6.938056
        ]
      },
      "id": "node/4370481546"
    },
    {
      "type": "Feature",
      "properties": {
        "@id": "node/4370531568",
        "name": "Hotel Istana",
        "tourism": "hotel"
      },
      "geometry": {
        "type": "Point",
        "coordinates": [
          107.6121924,
          -6.9177986
        ]
      },
      "id": "node/4370531568"
    },
    {
      "type": "Feature",
      "properties": {
        "@id": "node/4370599589",
        "name": "Vio Hotel Pasteur",
        "tourism": "hotel"
      },
      "geometry": {
        "type": "Point",
        "coordinates": [
          107.5821626,
          -6.8922074
        ]
      },
      "id": "node/4370599589"
    },
    {
      "type": "Feature",
      "properties": {
        "@id": "node/4373080471",
        "name": "Amira Hotel",
        "tourism": "hotel"
      },
      "geometry": {
        "type": "Point",
        "coordinates": [
          107.5831743,
          -6.8841687
        ]
      },
      "id": "node/4373080471"
    },
    {
      "type": "Feature",
      "properties": {
        "@id": "node/4373107740",
        "name": "Sakura Guest House",
        "tourism": "hotel"
      },
      "geometry": {
        "type": "Point",
        "coordinates": [
          107.6053848,
          -6.9033913
        ]
      },
      "id": "node/4373107740"
    },
    {
      "type": "Feature",
      "properties": {
        "@id": "node/4373130278",
        "name": "Elenor's Home",
        "tourism": "hotel"
      },
      "geometry": {
        "type": "Point",
        "coordinates": [
          107.6012479,
          -6.8880057
        ]
      },
      "id": "node/4373130278"
    },
    {
      "type": "Feature",
      "properties": {
        "@id": "node/4373140133",
        "name": "Pondok Kurnia",
        "tourism": "hotel"
      },
      "geometry": {
        "type": "Point",
        "coordinates": [
          107.6267781,
          -6.9452455
        ]
      },
      "id": "node/4373140133"
    },
    {
      "type": "Feature",
      "properties": {
        "@id": "node/4373144127",
        "tourism": "hotel"
      },
      "geometry": {
        "type": "Point",
        "coordinates": [
          107.5776845,
          -6.8863093
        ]
      },
      "id": "node/4373144127"
    },
    {
      "type": "Feature",
      "properties": {
        "@id": "node/4373174485",
        "name": "Arlya Hotel",
        "tourism": "hotel"
      },
      "geometry": {
        "type": "Point",
        "coordinates": [
          107.653156,
          -6.9179939
        ]
      },
      "id": "node/4373174485"
    },
    {
      "type": "Feature",
      "properties": {
        "@id": "node/4373270426",
        "name": "Kenangan Hotel",
        "tourism": "hotel"
      },
      "geometry": {
        "type": "Point",
        "coordinates": [
          107.605407,
          -6.9125995
        ]
      },
      "id": "node/4373270426"
    },
    {
      "type": "Feature",
      "properties": {
        "@id": "node/4373321350",
        "name": "Hotel Salon Fora",
        "tourism": "hotel"
      },
      "geometry": {
        "type": "Point",
        "coordinates": [
          107.5930342,
          -6.8703099
        ]
      },
      "id": "node/4373321350"
    },
    {
      "type": "Feature",
      "properties": {
        "@id": "node/4373373687",
        "name": "Oasis Hotel",
        "tourism": "hotel"
      },
      "geometry": {
        "type": "Point",
        "coordinates": [
          107.6193761,
          -6.9116572
        ]
      },
      "id": "node/4373373687"
    },
    {
      "type": "Feature",
      "properties": {
        "@id": "node/4373419773",
        "name": "Hotel Boulevard",
        "tourism": "hotel"
      },
      "geometry": {
        "type": "Point",
        "coordinates": [
          107.6261956,
          -6.9294983
        ]
      },
      "id": "node/4373419773"
    },
    {
      "type": "Feature",
      "properties": {
        "@id": "node/4373592307",
        "name": "Hotel Anda",
        "tourism": "hotel"
      },
      "geometry": {
        "type": "Point",
        "coordinates": [
          107.6265725,
          -6.919194
        ]
      },
      "id": "node/4373592307"
    },
    {
      "type": "Feature",
      "properties": {
        "@id": "node/4374570796",
        "addr:street": "Jalan Belakang Pasar",
        "internet_access": "wlan",
        "name": "Palm Hotel",
        "name:it": "Palm",
        "tourism": "hotel"
      },
      "geometry": {
        "type": "Point",
        "coordinates": [
          107.59872,
          -6.9172119
        ]
      },
      "id": "node/4374570796"
    },
    {
      "type": "Feature",
      "properties": {
        "@id": "node/4381766291",
        "name": "Rizh Garden",
        "tourism": "hotel"
      },
      "geometry": {
        "type": "Point",
        "coordinates": [
          107.6201129,
          -6.9281394
        ]
      },
      "id": "node/4381766291"
    },
    {
      "type": "Feature",
      "properties": {
        "@id": "node/4395991497",
        "addr:housenumber": "130",
        "addr:street": "Jalan Ir. H. Juanda",
        "name": "Attic",
        "tourism": "guest_house"
      },
      "geometry": {
        "type": "Point",
        "coordinates": [
          107.6141432,
          -6.8894684
        ]
      },
      "id": "node/4395991497"
    },
    {
      "type": "Feature",
      "properties": {
        "@id": "node/4402017325",
        "addr:city": "Bandung",
        "addr:housenumber": "194",
        "addr:street": "Jenderal Gatot Subroto",
        "name": "Bantal Guling",
        "tourism": "hotel"
      },
      "geometry": {
        "type": "Point",
        "coordinates": [
          107.6395774,
          -6.9303091
        ]
      },
      "id": "node/4402017325"
    },
    {
      "type": "Feature",
      "properties": {
        "@id": "node/4403942376",
        "name": "GH Universal",
        "tourism": "hotel"
      },
      "geometry": {
        "type": "Point",
        "coordinates": [
          107.5982953,
          -6.8500004
        ]
      },
      "id": "node/4403942376"
    },
    {
      "type": "Feature",
      "properties": {
        "@id": "node/4421265389",
        "name:de": "Rahma's Friend",
        "tourism": "guest_house"
      },
      "geometry": {
        "type": "Point",
        "coordinates": [
          107.656065,
          -6.9350687
        ]
      },
      "id": "node/4421265389"
    },
    {
      "type": "Feature",
      "properties": {
        "@id": "node/4489016289",
        "addr:housenumber": "E36",
        "addr:postcode": "40291",
        "addr:street": "Jalan Randusari",
        "internet_access": "wlan",
        "name": "Basecamp",
        "tourism": "guest_house"
      },
      "geometry": {
        "type": "Point",
        "coordinates": [
          107.6636102,
          -6.9285726
        ]
      },
      "id": "node/4489016289"
    },
    {
      "type": "Feature",
      "properties": {
        "@id": "node/4543278790",
        "name": "Suryalaya Inn",
        "tourism": "hotel"
      },
      "geometry": {
        "type": "Point",
        "coordinates": [
          107.6234262,
          -6.9434523
        ]
      },
      "id": "node/4543278790"
    },
    {
      "type": "Feature",
      "properties": {
        "@id": "node/4555510932",
        "internet_access": "wlan",
        "name": "Venice Guest House",
        "tourism": "guest_house"
      },
      "geometry": {
        "type": "Point",
        "coordinates": [
          107.6054923,
          -6.9124293
        ]
      },
      "id": "node/4555510932"
    },
    {
      "type": "Feature",
      "properties": {
        "@id": "node/4655134787",
        "name": "Fave Hotel",
        "tourism": "hotel"
      },
      "geometry": {
        "type": "Point",
        "coordinates": [
          107.5942195,
          -6.9161539
        ]
      },
      "id": "node/4655134787"
    },
    {
      "type": "Feature",
      "properties": {
        "@id": "node/4690587590",
        "name": "Buton Backpackers Lodge",
        "tourism": "hostel"
      },
      "geometry": {
        "type": "Point",
        "coordinates": [
          107.615306,
          -6.9186417
        ]
      },
      "id": "node/4690587590"
    },
    {
      "type": "Feature",
      "properties": {
        "@id": "node/5022145228",
        "name": "Gado Gadu Hostel (real adress!)",
        "name:de": "Gado Gadu Hostel (richtige Adresse!)",
        "tourism": "hotel"
      },
      "geometry": {
        "type": "Point",
        "coordinates": [
          107.5990058,
          -6.9172152
        ]
      },
      "id": "node/5022145228"
    },
    {
      "type": "Feature",
      "properties": {
        "@id": "node/5031456123",
        "addr:housenumber": "3-1",
        "addr:postcode": "40163",
        "addr:street": "Jalan Suka Mulya",
        "name": "Rompis Residence",
        "phone": "+62212013422",
        "tourism": "hostel"
      },
      "geometry": {
        "type": "Point",
        "coordinates": [
          107.5879782,
          -6.8870845
        ]
      },
      "id": "node/5031456123"
    },
    {
      "type": "Feature",
      "properties": {
        "@id": "node/5172665198",
        "addr:city": "Bandung",
        "addr:housenumber": "223-227",
        "addr:street": "Jl. RE Martadinata",
        "name": "The Newton Hotel",
        "tourism": "hotel"
      },
      "geometry": {
        "type": "Point",
        "coordinates": [
          107.6298813,
          -6.9147927
        ]
      },
      "id": "node/5172665198"
    },
    {
      "type": "Feature",
      "properties": {
        "@id": "node/5182888921",
        "name": "Caryota",
        "tourism": "hotel"
      },
      "geometry": {
        "type": "Point",
        "coordinates": [
          107.5963463,
          -6.884368
        ]
      },
      "id": "node/5182888921"
    },
    {
      "type": "Feature",
      "properties": {
        "@id": "node/5291705249",
        "addr:housenumber": "45",
        "addr:postcode": "40111",
        "addr:street": "Jalan Braga",
        "breakfast": "Mo-Su 7:00-11:00",
        "internet_access": "wlan",
        "name": "Chez Bon Hostel",
        "phone": "+62-22-4260-600",
        "rooms": "8",
        "tourism": "hostel",
        "website": "http://chez-bon.com",
        "wheelchair": "no"
      },
      "geometry": {
        "type": "Point",
        "coordinates": [
          107.6095986,
          -6.91865
        ]
      },
      "id": "node/5291705249"
    },
    {
      "type": "Feature",
      "properties": {
        "@id": "node/5451497375",
        "addr:city": "Bandung",
        "addr:housename": "Lini Hootel",
        "addr:housenumber": "4",
        "name": "Hotel Lini",
        "stars": "4",
        "tourism": "hotel"
      },
      "geometry": {
        "type": "Point",
        "coordinates": [
          107.604332,
          -6.9139162
        ]
      },
      "id": "node/5451497375"
    },
    {
      "type": "Feature",
      "properties": {
        "@id": "node/5698297022",
        "addr:housenumber": "7",
        "addr:street": "Jalan Emung",
        "internet_access": "wlan",
        "name": "Pondok E7",
        "phone": "+62 821 2197 9826",
        "tourism": "hostel"
      },
      "geometry": {
        "type": "Point",
        "coordinates": [
          107.6185057,
          -6.9256193
        ]
      },
      "id": "node/5698297022"
    },
    {
      "type": "Feature",
      "properties": {
        "@id": "node/5750040967",
        "name": "Aston Pasteur",
        "tourism": "hotel"
      },
      "geometry": {
        "type": "Point",
        "coordinates": [
          107.5872882,
          -6.8934438
        ]
      },
      "id": "node/5750040967"
    },
    {
      "type": "Feature",
      "properties": {
        "@id": "node/5833680550",
        "addr:city": "Bandung",
        "addr:housenumber": "5",
        "addr:postcode": "40142",
        "addr:street": "Jalan Panumbang Jaya",
        "internet_access": "wlan",
        "name": "The House Tour Hotel",
        "rooms": "20",
        "smoking": "separated",
        "tourism": "hotel"
      },
      "geometry": {
        "type": "Point",
        "coordinates": [
          107.6034675,
          -6.8669072
        ]
      },
      "id": "node/5833680550"
    },
    {
      "type": "Feature",
      "properties": {
        "@id": "node/5849852581",
        "addr:city": "Bandung",
        "addr:housenumber": "76A",
        "addr:postcode": "40171",
        "addr:street": "Jalan HOS. Tjokroaminoto",
        "brand": "Bobobox",
        "description": "Bobobox is the first high technology capsule hotel in Indonesia.",
        "email": "info@bobobox.co.id",
        "internet_access": "wlan",
        "internet_access:fee": "no",
        "name": "Bobobox Pods Paskal",
        "operator": "PT. Bobobox Mitra Indonesia",
        "payment:cash": "yes",
        "payment:gpn_debit": "yes",
        "payment:maestro": "yes",
        "payment:mastercard": "yes",
        "payment:visa": "yes",
        "payment:visa_debit": "yes",
        "payment:visa_electron": "yes",
        "phone": "+62224266430",
        "rooms": "62",
        "smoking": "outside",
        "stars": "0",
        "start_date": "07/01/2018",
        "tourism": "hotel",
        "website": "https://bobobox.co.id/"
      },
      "geometry": {
        "type": "Point",
        "coordinates": [
          107.5979685,
          -6.9103665
        ]
      },
      "id": "node/5849852581"
    },
    {
      "type": "Feature",
      "properties": {
        "@id": "node/6087086135",
        "tourism": "guest_house"
      },
      "geometry": {
        "type": "Point",
        "coordinates": [
          107.6049376,
          -6.889041
        ]
      },
      "id": "node/6087086135"
    },
    {
      "type": "Feature",
      "properties": {
        "@id": "node/6151203590",
        "brand": "Harris",
        "name": "Hotel Harris",
        "tourism": "hotel"
      },
      "geometry": {
        "type": "Point",
        "coordinates": [
          107.6040432,
          -6.8806352
        ]
      },
      "id": "node/6151203590"
    },
    {
      "type": "Feature",
      "properties": {
        "@id": "node/6161104561",
        "name": "De Paviljoen",
        "tourism": "hotel"
      },
      "geometry": {
        "type": "Point",
        "coordinates": [
          107.6207107,
          -6.9060582
        ]
      },
      "id": "node/6161104561"
    },
    {
      "type": "Feature",
      "properties": {
        "@id": "node/6278571391",
        "addr:housenumber": "92 / 6A",
        "addr:postcode": "40173",
        "addr:street": "Jalan Musen",
        "email": "paskal@pinisirelaxation.com",
        "internet_access": "wlan",
        "name": "Pinisi Backpacker",
        "opening_hours": "Mo-Su 08:00-23:00",
        "phone": "+622286868610",
        "tourism": "hostel",
        "website": "http://www.pinisibackpacker.com"
      },
      "geometry": {
        "type": "Point",
        "coordinates": [
          107.5980272,
          -6.9098781
        ]
      },
      "id": "node/6278571391"
    },
    {
      "type": "Feature",
      "properties": {
        "@id": "node/6777587530",
        "addr:housenumber": "19",
        "addr:street": "Jl. Siliwangi Dalam Gang 3 No.19 RT08/RW01, Cipaganti, Coblong, Bandung",
        "name": "Kos Pak H.E Sukendar",
        "tourism": "guest_house"
      },
      "geometry": {
        "type": "Point",
        "coordinates": [
          107.6057267,
          -6.8858561
        ]
      },
      "id": "node/6777587530"
    },
    {
      "type": "Feature",
      "properties": {
        "@id": "node/6854504885",
        "addr:housenumber": "A20",
        "addr:street": "Jalan Dakota",
        "name": "Home Mr Syarif Bastaman",
        "tourism": "guest_house"
      },
      "geometry": {
        "type": "Point",
        "coordinates": [
          107.567658,
          -6.8957688
        ]
      },
      "id": "node/6854504885"
    },
    {
      "type": "Feature",
      "properties": {
        "@id": "node/7076351776",
        "addr:housenumber": "12",
        "addr:street": "Jalan Tanjung Anom",
        "name": "Ostel by Ostic",
        "tourism": "guest_house",
        "wikidata": "Q111078139"
      },
      "geometry": {
        "type": "Point",
        "coordinates": [
          107.5958223,
          -6.9071595
        ]
      },
      "id": "node/7076351776"
    },
    {
      "type": "Feature",
      "properties": {
        "@id": "node/7081714941",
        "name": "Serelah",
        "tourism": "hotel"
      },
      "geometry": {
        "type": "Point",
        "coordinates": [
          107.6091,
          -6.9065098
        ]
      },
      "id": "node/7081714941"
    },
    {
      "type": "Feature",
      "properties": {
        "@id": "node/7081727464",
        "name": "Yokotel",
        "tourism": "hotel"
      },
      "geometry": {
        "type": "Point",
        "coordinates": [
          107.5982038,
          -6.9037995
        ]
      },
      "id": "node/7081727464"
    },
    {
      "type": "Feature",
      "properties": {
        "@id": "node/7087017045",
        "name": "Sukaraja",
        "tourism": "guest_house"
      },
      "geometry": {
        "type": "Point",
        "coordinates": [
          107.5695634,
          -6.8919497
        ]
      },
      "id": "node/7087017045"
    },
    {
      "type": "Feature",
      "properties": {
        "@id": "node/7661595392",
        "addr:city": "Bandung",
        "addr:housenumber": "33",
        "addr:postcode": "40116",
        "addr:street": "Jalan Ir H Juanda",
        "brand": "Courtyard",
        "brand:wikidata": "Q1053170",
        "name": "Courtyard Bandung Dago",
        "official_name": "Courtyard by Marriott",
        "rooms": "192",
        "tourism": "hotel"
      },
      "geometry": {
        "type": "Point",
        "coordinates": [
          107.6104174,
          -6.9042201
        ]
      },
      "id": "node/7661595392"
    },
    {
      "type": "Feature",
      "properties": {
        "@id": "node/7661597002",
        "addr:city": "Bandung",
        "addr:housenumber": "69",
        "addr:postcode": "40116",
        "addr:street": "Jalan Ir H Djuanda",
        "brand": "Moxy",
        "brand:wikidata": "Q70287020",
        "name": "Moxy Bandung",
        "rooms": "109",
        "stars": "3",
        "tourism": "hotel"
      },
      "geometry": {
        "type": "Point",
        "coordinates": [
          107.612072,
          -6.9003149
        ]
      },
      "id": "node/7661597002"
    },
    {
      "type": "Feature",
      "properties": {
        "@id": "node/7890431757",
        "brand": "ottenway hostel",
        "name": "ottenway hostel",
        "tourism": "motel"
      },
      "geometry": {
        "type": "Point",
        "coordinates": [
          107.5991223,
          -6.9013094
        ]
      },
      "id": "node/7890431757"
    },
    {
      "type": "Feature",
      "properties": {
        "@id": "node/8050910212",
        "addr:housenumber": "4",
        "addr:street": "PPR ITB Blok L, Jalan Nyalindung , 40142",
        "description": "A dorm / flat for students of Institut Teknologi Bandung, and or other universities.",
        "name": "Kost Putra Nyalindung ITB",
        "opening_hours": "Mo-Su 08:00-16:00, 08:00-16:00",
        "tourism": "guest_house"
      },
      "geometry": {
        "type": "Point",
        "coordinates": [
          107.6214015,
          -6.8557726
        ]
      },
      "id": "node/8050910212"
    },
    {
      "type": "Feature",
      "properties": {
        "@id": "node/9800515672",
        "name": "Hotel Santika Pasir Koja",
        "tourism": "hotel"
      },
      "geometry": {
        "type": "Point",
        "coordinates": [
          107.5905365,
          -6.9328758
        ]
      },
      "id": "node/9800515672"
    },
    {
      "type": "Feature",
      "properties": {
        "@id": "node/9803556199",
        "name": "Zodiak Taurus Hotel Bandung",
        "tourism": "hotel"
      },
      "geometry": {
        "type": "Point",
        "coordinates": [
          107.597972,
          -6.9114101
        ]
      },
      "id": "node/9803556199"
    },
    {
      "type": "Feature",
      "properties": {
        "@id": "node/9805277511",
        "name": "Hotel Pangarang Sari",
        "tourism": "hotel"
      },
      "geometry": {
        "type": "Point",
        "coordinates": [
          107.6098741,
          -6.9232784
        ]
      },
      "id": "node/9805277511"
    },
    {
      "type": "Feature",
      "properties": {
        "@id": "node/9805299566",
        "name": "Cassadua Hotel",
        "tourism": "hotel"
      },
      "geometry": {
        "type": "Point",
        "coordinates": [
          107.5781911,
          -6.8897003
        ]
      },
      "id": "node/9805299566"
    },
    {
      "type": "Feature",
      "properties": {
        "@id": "node/9805312659",
        "name": "Hotel Bandung Permai",
        "tourism": "hotel"
      },
      "geometry": {
        "type": "Point",
        "coordinates": [
          107.6338258,
          -6.9138883
        ]
      },
      "id": "node/9805312659"
    },
    {
      "type": "Feature",
      "properties": {
        "@id": "node/9805316457",
        "name": "Hemangini Hotel Bandung",
        "tourism": "hotel"
      },
      "geometry": {
        "type": "Point",
        "coordinates": [
          107.599154,
          -6.8807048
        ]
      },
      "id": "node/9805316457"
    },
    {
      "type": "Feature",
      "properties": {
        "@id": "node/9805337893",
        "name": "Art Deco Luxury Hotel",
        "tourism": "hotel"
      },
      "geometry": {
        "type": "Point",
        "coordinates": [
          107.6076831,
          -6.8700507
        ]
      },
      "id": "node/9805337893"
    },
    {
      "type": "Feature",
      "properties": {
        "@id": "node/9805348926",
        "name": "Hotel Image",
        "tourism": "hotel"
      },
      "geometry": {
        "type": "Point",
        "coordinates": [
          107.6126483,
          -6.9311501
        ]
      },
      "id": "node/9805348926"
    },
    {
      "type": "Feature",
      "properties": {
        "@id": "node/9805414865",
        "name": "Hotel Ammeerra",
        "tourism": "hotel"
      },
      "geometry": {
        "type": "Point",
        "coordinates": [
          107.5889075,
          -6.8725627
        ]
      },
      "id": "node/9805414865"
    },
    {
      "type": "Feature",
      "properties": {
        "@id": "node/9805536597",
        "name": "Geary Hotel Bandung",
        "tourism": "hotel"
      },
      "geometry": {
        "type": "Point",
        "coordinates": [
          107.603268,
          -6.9124558
        ]
      },
      "id": "node/9805536597"
    },
    {
      "type": "Feature",
      "properties": {
        "@id": "node/9805540456",
        "name": "Kembang Hotel Cihampelas Bandung",
        "tourism": "hotel"
      },
      "geometry": {
        "type": "Point",
        "coordinates": [
          107.6042331,
          -6.8990997
        ]
      },
      "id": "node/9805540456"
    },
    {
      "type": "Feature",
      "properties": {
        "@id": "node/9805578775",
        "name": "Hotel Negla Sari Bandung",
        "tourism": "hotel"
      },
      "geometry": {
        "type": "Point",
        "coordinates": [
          107.6068068,
          -6.9173347
        ]
      },
      "id": "node/9805578775"
    },
    {
      "type": "Feature",
      "properties": {
        "@id": "node/9805664420",
        "name": "Hotel Unik Bandung",
        "tourism": "hotel"
      },
      "geometry": {
        "type": "Point",
        "coordinates": [
          107.6002599,
          -6.9114999
        ]
      },
      "id": "node/9805664420"
    },
    {
      "type": "Feature",
      "properties": {
        "@id": "node/9805727870",
        "name": "Hotel 10 Buah Batu",
        "tourism": "hotel"
      },
      "geometry": {
        "type": "Point",
        "coordinates": [
          107.6203907,
          -6.9343535
        ]
      },
      "id": "node/9805727870"
    },
    {
      "type": "Feature",
      "properties": {
        "@id": "node/9805777954",
        "name": "Setrasari Hotel",
        "tourism": "hotel"
      },
      "geometry": {
        "type": "Point",
        "coordinates": [
          107.5812672,
          -6.8818003
        ]
      },
      "id": "node/9805777954"
    },
    {
      "type": "Feature",
      "properties": {
        "@id": "node/9805811387",
        "name": "Ruby Hotel Bandung",
        "tourism": "hotel"
      },
      "geometry": {
        "type": "Point",
        "coordinates": [
          107.5989769,
          -6.9054342
        ]
      },
      "id": "node/9805811387"
    },
    {
      "type": "Feature",
      "properties": {
        "@id": "node/9805978343",
        "name": "Lobby Baltika Hotel Bandung",
        "tourism": "hotel"
      },
      "geometry": {
        "type": "Point",
        "coordinates": [
          107.6225303,
          -6.9233601
        ]
      },
      "id": "node/9805978343"
    },
    {
      "type": "Feature",
      "properties": {
        "@id": "node/9807670497",
        "name": "Sentra Inn Bandung",
        "tourism": "hotel"
      },
      "geometry": {
        "type": "Point",
        "coordinates": [
          107.6191501,
          -6.9250651
        ]
      },
      "id": "node/9807670497"
    },
    {
      "type": "Feature",
      "properties": {
        "@id": "node/9807694443",
        "name": "Hostel Intech Kopo 538",
        "tourism": "hotel"
      },
      "geometry": {
        "type": "Point",
        "coordinates": [
          107.5834362,
          -6.9547965
        ]
      },
      "id": "node/9807694443"
    },
    {
      "type": "Feature",
      "properties": {
        "@id": "node/9807795332",
        "name": "Pratidina Business Residence",
        "tourism": "hotel"
      },
      "geometry": {
        "type": "Point",
        "coordinates": [
          107.6317452,
          -6.8923149
        ]
      },
      "id": "node/9807795332"
    },
    {
      "type": "Feature",
      "properties": {
        "@id": "node/9807817528",
        "name": "De Braga By Artotel Bandung",
        "tourism": "hotel"
      },
      "geometry": {
        "type": "Point",
        "coordinates": [
          107.6100633,
          -6.9203601
        ]
      },
      "id": "node/9807817528"
    },
    {
      "type": "Feature",
      "properties": {
        "@id": "node/9808104016",
        "name": "Pass Hill House",
        "tourism": "hotel"
      },
      "geometry": {
        "type": "Point",
        "coordinates": [
          107.621098,
          -6.943745
        ]
      },
      "id": "node/9808104016"
    },
    {
      "type": "Feature",
      "properties": {
        "@id": "node/9809020563",
        "name": "Greko Creative Hub Hotel Bandung",
        "tourism": "hotel"
      },
      "geometry": {
        "type": "Point",
        "coordinates": [
          107.6217651,
          -6.9207546
        ]
      },
      "id": "node/9809020563"
    },
    {
      "type": "Feature",
      "properties": {
        "@id": "node/9813954095",
        "name": "OYO 2183 Cibeureum Residence",
        "tourism": "hotel"
      },
      "geometry": {
        "type": "Point",
        "coordinates": [
          107.5688325,
          -6.9105986
        ]
      },
      "id": "node/9813954095"
    },
    {
      "type": "Feature",
      "properties": {
        "@id": "node/9816386508",
        "name": "The Regia by Ultimo",
        "tourism": "hotel"
      },
      "geometry": {
        "type": "Point",
        "coordinates": [
          107.6042216,
          -6.8887597
        ]
      },
      "id": "node/9816386508"
    },
    {
      "type": "Feature",
      "properties": {
        "@id": "node/9816492337",
        "name": "Fox Harris Hotel Bandung",
        "tourism": "hotel"
      },
      "geometry": {
        "type": "Point",
        "coordinates": [
          107.6129062,
          -6.9146486
        ]
      },
      "id": "node/9816492337"
    },
    {
      "type": "Feature",
      "properties": {
        "@id": "node/9843372844",
        "name": "U Janevalla Bandung",
        "tourism": "hotel"
      },
      "geometry": {
        "type": "Point",
        "coordinates": [
          107.6114617,
          -6.9095807
        ]
      },
      "id": "node/9843372844"
    },
    {
      "type": "Feature",
      "properties": {
        "@id": "node/9943969629",
        "name": "Grandia",
        "tourism": "hotel"
      },
      "geometry": {
        "type": "Point",
        "coordinates": [
          107.6045328,
          -6.9006929
        ]
      },
      "id": "node/9943969629"
    },
    {
      "type": "Feature",
      "properties": {
        "@id": "node/10653972830",
        "tourism": "hotel"
      },
      "geometry": {
        "type": "Point",
        "coordinates": [
          107.601068,
          -6.8432792
        ]
      },
      "id": "node/10653972830"
    },
    {
      "type": "Feature",
      "properties": {
        "@id": "node/10740506117",
        "addr:housenumber": "37",
        "addr:street": "Jalan W. R. Supratman",
        "alt_name": "RedDoorz @ Supratman Street",
        "name": "Hotel Sanira",
        "opening_hours": "Mo-Su 14:00-12:00",
        "phone": "+62 227208480",
        "tourism": "hotel"
      },
      "geometry": {
        "type": "Point",
        "coordinates": [
          107.6287133,
          -6.9052842
        ]
      },
      "id": "node/10740506117"
    },
    {
      "type": "Feature",
      "properties": {
        "@id": "node/11064477660",
        "brand": "Ibis Styles",
        "brand:wikidata": "Q3147425",
        "name": "ibis Styles",
        "stars": "3",
        "tourism": "hotel"
      },
      "geometry": {
        "type": "Point",
        "coordinates": [
          107.6175076,
          -6.9007876
        ]
      },
      "id": "node/11064477660"
    },
    {
      "type": "Feature",
      "properties": {
        "@id": "node/11070277751",
        "name": "Mercure Bandung City Centre",
        "stars": "4",
        "tourism": "hotel"
      },
      "geometry": {
        "type": "Point",
        "coordinates": [
          107.6112694,
          -6.9238563
        ]
      },
      "id": "node/11070277751"
    },
    {
      "type": "Feature",
      "properties": {
        "@id": "node/11546593921",
        "addr:city": "Bandung",
        "addr:housenumber": "No.1",
        "addr:postcode": "40142",
        "addr:street": "Jalan Rancabentang II",
        "email": "farizzia32@gmail.com",
        "guest_house": "guest_house",
        "internet_access": "yes",
        "internet_access:fee": "customers",
        "name": "Kost Bu Nia",
        "operator": "Mohammad Fariz Zia",
        "phone": "+6282116959928",
        "rooms": "11",
        "tourism": "hostel",
        "website": "https://mamikos.com/room/kost-kota-bandung-kost-campur-murah-kost-bu-nia-cidadap-bandung-2"
      },
      "geometry": {
        "type": "Point",
        "coordinates": [
          107.6080358,
          -6.8736512
        ]
      },
      "id": "node/11546593921"
    },
    {
      "type": "Feature",
      "properties": {
        "@id": "node/11608070660",
        "name": "Gino Feruci Kebonjati Hotel",
        "name:ja": "    ",
        "tourism": "hotel"
      },
      "geometry": {
        "type": "Point",
        "coordinates": [
          107.5988392,
          -6.9164956
        ]
      },
      "id": "node/11608070660"
    },
    {
      "type": "Feature",
      "properties": {
        "@id": "node/11915115699",
        "internet_access": "wlan",
        "internet_access:fee": "no",
        "internet_access:ssid": "SKYLAND_T1;SKYLAND_T2",
        "name": "Skyland Guest House Bandung",
        "smoking": "outside",
        "tourism": "hotel",
        "wheelchair": "no"
      },
      "geometry": {
        "type": "Point",
        "coordinates": [
          107.5794872,
          -6.8828173
        ]
      },
      "id": "node/11915115699"
    },
    {
      "type": "Feature",
      "properties": {
        "@id": "node/11984843791",
        "name": "Little Mykonos",
        "tourism": "hotel"
      },
      "geometry": {
        "type": "Point",
        "coordinates": [
          107.6059106,
          -6.9111293
        ]
      },
      "id": "node/11984843791"
    },
    {
      "type": "Feature",
      "properties": {
        "@id": "node/12006584835",
        "addr:city": "Bandung",
        "addr:housenumber": "41-43",
        "addr:postcode": "40172",
        "addr:street": "Jalan HOS. Tjokroaminoto",
        "brand": "Hilton",
        "brand:wikidata": "Q598884",
        "contact:facebook": "https://www.facebook.com/HiltonBandung",
        "email": "bandung.reservations@hilton.com",
        "fax": "+62 22 8606 6999",
        "internet_access": "yes",
        "internet_access:fee": "no",
        "name": "Hilton Bandung",
        "opening_hours": "24/7",
        "operator": "Hilton",
        "phone": "+62 22 86051300",
        "rooms": "186",
        "smoking": "separated",
        "stars": "5",
        "tourism": "hotel",
        "website": "https://www.hilton.com/en/hotels/bdohihi-hilton-bandung/",
        "wikidata": "Q2141411",
        "wikipedia": "id:Hilton Bandung"
      },
      "geometry": {
        "type": "Point",
        "coordinates": [
          107.5974812,
          -6.9126182
        ]
      },
      "id": "node/12006584835"
    },
    {
      "type": "Feature",
      "properties": {
        "@id": "node/12064373925",
        "name": "Puma Hotel",
        "tourism": "hotel"
      },
      "geometry": {
        "type": "Point",
        "coordinates": [
          107.6039465,
          -6.8940622
        ]
      },
      "id": "node/12064373925"
    },
    {
      "type": "Feature",
      "properties": {
        "@id": "node/12637947272",
        "addr:housenumber": "16",
        "addr:street": "Jl. Otto Iskander Dirata",
        "name": "Arion Suites Hotel",
        "phone": "6281212120248",
        "tourism": "hotel",
        "website": "www.arionsuiteshotel.com"
      },
      "geometry": {
        "type": "Point",
        "coordinates": [
          107.6043728,
          -6.9133823
        ]
      },
      "id": "node/12637947272"
    }
  ]
}