{
"type": "FeatureCollection",
"name": "Wisata_edukasi_200m",
"crs": { "type": "name", "properties": { "name": "urn:ogc:def:crs:EPSG::32748" } },
"features": [
{ "type": "Feature", "properties": { "fid": 5, "id": "way/119760179", "@id": "way/119760179", "amenity": "college", "historic": null, "name": "Akademi Akuntansi Bandung", "tourism": "collage", "cuisine": null, "leisure": null, "Jenis_wisata": "edukasi" }, "geometry": { "type": "Point", "coordinates": [ 788464.446715407073498, 9235529.63093089312315 ] } },
{ "type": "Feature", "properties": { "fid": 6, "id": "way/119760341", "@id": "way/119760341", "amenity": "library", "historic": null, "name": "UNPAR Library", "tourism": "library", "cuisine": null, "leisure": null, "Jenis_wisata": "edukasi" }, "geometry": { "type": "Point", "coordinates": [ 788454.132725651026703, 9235443.625906882807612 ] } },
{ "type": "Feature", "properties": { "fid": 7, "id": "way/119880466", "@id": "way/119880466", "amenity": "monument", "historic": "monument", "name": "Bandung Sister Cities -  Fort Worth, Texas", "tourism": "monument", "cuisine": null, "leisure": null, "Jenis_wisata": "edukasi" }, "geometry": { "type": "Point", "coordinates": [ 788250.347338985302486, 9235499.077993959188461 ] } },
{ "type": "Feature", "properties": { "fid": 8, "id": "way/119880736", "@id": "way/119880736", "amenity": "museum", "historic": null, "name": "Gedung Indonesia Menggugat", "tourism": "museum", "cuisine": null, "leisure": null, "Jenis_wisata": "edukasi" }, "geometry": { "type": "Point", "coordinates": [ 788199.873296438483521, 9235032.661906789988279 ] } },
{ "type": "Feature", "properties": { "fid": 19, "id": "way/153882684", "@id": "way/153882684", "amenity": "university", "historic": null, "name": "STBA Yapari Aba", "tourism": "university", "cuisine": null, "leisure": null, "Jenis_wisata": "edukasi" }, "geometry": { "type": "Point", "coordinates": [ 787843.94127335678786, 9237385.276450045406818 ] } },
{ "type": "Feature", "properties": { "fid": 55, "id": "way/519673073", "@id": "way/519673073", "amenity": "gallery", "historic": null, "name": "Galeri Pusat Kebudayaan", "tourism": "gallery", "cuisine": null, "leisure": null, "Jenis_wisata": "edukasi" }, "geometry": { "type": "Point", "coordinates": [ 788457.980357029475272, 9234341.369927750900388 ] } },
{ "type": "Feature", "properties": { "fid": 59, "id": "way/530035434", "@id": "way/530035434", "amenity": "museum", "historic": null, "name": "Museum Kota Bandung", "tourism": "museum", "cuisine": null, "leisure": null, "Jenis_wisata": "edukasi" }, "geometry": { "type": "Point", "coordinates": [ 788382.953153900569305, 9235412.389157228171825 ] } },
{ "type": "Feature", "properties": { "fid": 103, "id": "way/949946468", "@id": "way/949946468", "amenity": "library", "historic": null, "name": "Dinas Arsip dan Perpustakaan Kota Bandung", "tourism": "library", "cuisine": null, "leisure": null, "Jenis_wisata": "edukasi" }, "geometry": { "type": "Point", "coordinates": [ 788870.134164137532935, 9235595.262454085052013 ] } },
{ "type": "Feature", "properties": { "fid": 118, "id": "way/1124757470", "@id": "way/1124757470", "amenity": "museum", "historic": null, "name": "Museum Mandala Wangsit Siliwangi", "tourism": "museum", "cuisine": null, "leisure": null, "Jenis_wisata": "edukasi" }, "geometry": { "type": "Point", "coordinates": [ 788547.036019718507305, 9234599.276001770049334 ] } },
{ "type": "Feature", "properties": { "fid": 135, "id": "way/1193303186", "@id": "way/1193303186", "amenity": "monument", "historic": "monument", "name": null, "tourism": "monument", "cuisine": null, "leisure": null, "Jenis_wisata": "edukasi" }, "geometry": { "type": "Point", "coordinates": [ 788329.820079980650917, 9235368.78103375248611 ] } },
{ "type": "Feature", "properties": { "fid": 140, "id": "node/1342944408", "@id": "node/1342944408", "amenity": "university", "historic": null, "name": "Universitas Padjajaran - Djuanda", "tourism": "university", "cuisine": null, "leisure": null, "Jenis_wisata": "edukasi" }, "geometry": { "type": "Point", "coordinates": [ 788537.191819758154452, 9235840.235674517229199 ] } },
{ "type": "Feature", "properties": { "fid": 141, "id": "node/1342970055", "@id": "node/1342970055", "amenity": "university", "historic": null, "name": "Universitas Katolik Parahyangan", "tourism": "university", "cuisine": null, "leisure": null, "Jenis_wisata": "edukasi" }, "geometry": { "type": "Point", "coordinates": [ 788524.934621747815982, 9235224.603137979283929 ] } },
{ "type": "Feature", "properties": { "fid": 142, "id": "way/1358497144", "@id": "way/1358497144", "amenity": "community_centre", "historic": null, "name": "Sawarna MC", "tourism": "community_center", "cuisine": null, "leisure": null, "Jenis_wisata": "edukasi" }, "geometry": { "type": "Point", "coordinates": [ 788150.427230369416066, 9234378.813031854107976 ] } },
{ "type": "Feature", "properties": { "fid": 146, "id": "way/1382606728", "@id": "way/1382606728", "amenity": "monument", "historic": "monument", "name": null, "tourism": "monument", "cuisine": null, "leisure": null, "Jenis_wisata": "edukasi" }, "geometry": { "type": "Point", "coordinates": [ 788467.60195488948375, 9234919.524606755003333 ] } },
{ "type": "Feature", "properties": { "fid": 154, "id": "node/1956969150", "@id": "node/1956969150", "amenity": "museum", "historic": null, "name": "Museum Siliwangi", "tourism": "museum", "cuisine": null, "leisure": null, "Jenis_wisata": "edukasi" }, "geometry": { "type": "Point", "coordinates": [ 788545.922684031189419, 9234614.022267369553447 ] } },
{ "type": "Feature", "properties": { "fid": 159, "id": "node/3348135338", "@id": "node/3348135338", "amenity": "monument", "historic": "monument", "name": "Monumen Penjara Bung Karno", "tourism": "monument", "cuisine": null, "leisure": null, "Jenis_wisata": "edukasi" }, "geometry": { "type": "Point", "coordinates": [ 788172.482457308331504, 9234397.781129935756326 ] } },
{ "type": "Feature", "properties": { "fid": 176, "id": "node/4402036473", "@id": "node/4402036473", "amenity": "university", "historic": null, "name": "Institut Francais Indonesia", "tourism": "university", "cuisine": null, "leisure": null, "Jenis_wisata": "edukasi" }, "geometry": { "type": "Point", "coordinates": [ 788376.61729818675667, 9235644.503434922546148 ] } },
{ "type": "Feature", "properties": { "fid": 194, "id": "node/6725583856", "@id": "node/6725583856", "amenity": "monument", "historic": "monument", "name": null, "tourism": "monument", "cuisine": null, "leisure": null, "Jenis_wisata": "edukasi" }, "geometry": { "type": "Point", "coordinates": [ 788319.949190553743392, 9234726.444621181115508 ] } },
{ "type": "Feature", "properties": { "fid": 197, "id": "node/7083339722", "@id": "node/7083339722", "amenity": "museum", "historic": null, "name": "Bandung Planning Gallery", "tourism": "museum", "cuisine": null, "leisure": null, "Jenis_wisata": "edukasi" }, "geometry": { "type": "Point", "coordinates": [ 788408.627221105154604, 9235375.29844487644732 ] } },
{ "type": "Feature", "properties": { "fid": 207, "id": "node/9944380449", "@id": "node/9944380449", "amenity": "monument", "historic": "monument", "name": null, "tourism": "monument", "cuisine": null, "leisure": null, "Jenis_wisata": "edukasi" }, "geometry": { "type": "Point", "coordinates": [ 788317.610847757197917, 9234983.546474969014525 ] } },
{ "type": "Feature", "properties": { "fid": 210, "id": "node/10171812049", "@id": "node/10171812049", "amenity": "library", "historic": null, "name": "Library In The Box", "tourism": "library", "cuisine": null, "leisure": null, "Jenis_wisata": "edukasi" }, "geometry": { "type": "Point", "coordinates": [ 788517.479792916681617, 9235490.44246525876224 ] } },
{ "type": "Feature", "properties": { "fid": 242, "id": "node/13031340642", "@id": "node/13031340642", "amenity": "monument", "historic": "monument", "name": null, "tourism": "monument", "cuisine": null, "leisure": null, "Jenis_wisata": "edukasi" }, "geometry": { "type": "Point", "coordinates": [ 788102.612214156426489, 9234905.513926850631833 ] } }
]
}
