{
"type": "FeatureCollection",
"name": "wisata_attraction_200m",
"crs": { "type": "name", "properties": { "name": "urn:ogc:def:crs:EPSG::32748" } },
"features": [
{ "type": "Feature", "properties": { "fid": 24, "id": "way/168567649", "@id": "way/168567649", "leisure": "park", "name": "Taman Patung Laskar Wanita", "tourism": "park", "cuisine": null, "historic": null, "amenity": "park", "Jenis_wisata": "hiburan" }, "geometry": { "type": "Point", "coordinates": [ 788079.236770153045654, 9234851.495435578748584 ] } },
{ "type": "Feature", "properties": { "fid": 25, "id": "way/168567650", "@id": "way/168567650", "leisure": "park", "name": "Taman Patung Pelajar Pejuang", "tourism": "park", "cuisine": null, "historic": null, "amenity": "park", "Jenis_wisata": "hiburan" }, "geometry": { "type": "Point", "coordinates": [ 788091.025301738991402, 9234893.869465161114931 ] } },
{ "type": "Feature", "properties": { "fid": 55, "id": "way/321028422", "@id": "way/321028422", "leisure": "park", "name": "Taman Vanda", "tourism": "park", "cuisine": null, "historic": null, "amenity": "park", "Jenis_wisata": "hiburan" }, "geometry": { "type": "Point", "coordinates": [ 788434.39365266088862, 9234957.962609753012657 ] } },
{ "type": "Feature", "properties": { "fid": 70, "id": "way/390192526", "@id": "way/390192526", "leisure": "park", "name": "Taman Cikapundung Riverside", "tourism": "park", "cuisine": null, "historic": null, "amenity": "park", "Jenis_wisata": "hiburan" }, "geometry": { "type": "Point", "coordinates": [ 788284.953649241128005, 9234282.031578568741679 ] } },
{ "type": "Feature", "properties": { "fid": 111, "id": "way/546640090", "@id": "way/546640090", "leisure": "park", "name": "Taman Sejarah", "tourism": "park", "cuisine": null, "historic": null, "amenity": "park", "Jenis_wisata": "hiburan" }, "geometry": { "type": "Point", "coordinates": [ 788449.778615918941796, 9235309.096251623705029 ] } },
{ "type": "Feature", "properties": { "fid": 118, "id": "way/547914280", "@id": "way/547914280", "leisure": "park", "name": "Taman Dinas Perpus dan Arsip Bandung", "tourism": "parkL", "cuisine": null, "historic": null, "amenity": "parkL", "Jenis_wisata": "hiburan" }, "geometry": { "type": "Point", "coordinates": [ 788829.252299445681274, 9235638.036464530974627 ] } },
{ "type": "Feature", "properties": { "fid": 148, "id": "way/550629663", "@id": "way/550629663", "leisure": "park", "name": "Taman Ciwalk", "tourism": "park", "cuisine": null, "historic": null, "amenity": "park", "Jenis_wisata": "hiburan" }, "geometry": { "type": "Point", "coordinates": [ 787874.035111730219796, 9237177.024970633909106 ] } },
{ "type": "Feature", "properties": { "fid": 154, "id": "way/556308928", "@id": "way/556308928", "leisure": "park", "name": "Taman Depan Porwitabes", "tourism": "park", "cuisine": null, "historic": null, "amenity": "park", "Jenis_wisata": "hiburan" }, "geometry": { "type": "Point", "coordinates": [ 788474.349433450726792, 9234966.175751013681293 ] } },
{ "type": "Feature", "properties": { "fid": 219, "id": "way/739777716", "@id": "way/739777716", "leisure": "park", "name": null, "tourism": "park", "cuisine": null, "historic": null, "amenity": "park", "Jenis_wisata": "hiburan" }, "geometry": { "type": "Point", "coordinates": [ 788086.700179699109867, 9234964.262763855978847 ] } },
{ "type": "Feature", "properties": { "fid": 367, "id": "way/1381663440", "@id": "way/1381663440", "leisure": "attraction", "name": "Kawasan Jalan Braga", "tourism": "attraction", "cuisine": null, "historic": null, "amenity": "attraction", "Jenis_wisata": "hiburan" }, "geometry": { "type": "Point", "coordinates": [ 788350.119134140666574, 9234531.381793702021241 ] } },
{ "type": "Feature", "properties": { "fid": 368, "id": "way/1382606712", "@id": "way/1382606712", "leisure": "park", "name": null, "tourism": "park", "cuisine": null, "historic": null, "amenity": "park", "Jenis_wisata": "hiburan" }, "geometry": { "type": "Point", "coordinates": [ 788136.446207218337804, 9234926.719302834942937 ] } },
{ "type": "Feature", "properties": { "fid": 373, "id": "node/3754824465", "@id": "node/3754824465", "leisure": "attraction", "name": "Kopi Aroma", "tourism": "attraction", "cuisine": null, "historic": null, "amenity": "attraction", "Jenis_wisata": "hiburan" }, "geometry": { "type": "Point", "coordinates": [ 788012.574277626583353, 9234584.967753652483225 ] } },
{ "type": "Feature", "properties": { "fid": 400, "id": "node/10793585060", "@id": "node/10793585060", "leisure": "attraction", "name": "Taman Braga", "tourism": "attraction", "cuisine": null, "historic": null, "amenity": "attraction", "Jenis_wisata": "hiburan" }, "geometry": { "type": "Point", "coordinates": [ 788435.125032691517845, 9234317.692123828455806 ] } },
{ "type": "Feature", "properties": { "fid": 403, "id": "node/10996585701", "@id": "node/10996585701", "leisure": "park", "name": "Seasons Playground", "tourism": "park", "cuisine": null, "historic": null, "amenity": "park", "Jenis_wisata": "hiburan" }, "geometry": { "type": "Point", "coordinates": [ 788550.170903743128292, 9235589.471390288323164 ] } },
{ "type": "Feature", "properties": { "fid": 411, "id": "node/12073059377", "@id": "node/12073059377", "leisure": "park", "name": "Sister City Park", "tourism": "park", "cuisine": null, "historic": null, "amenity": "park", "Jenis_wisata": "hiburan" }, "geometry": { "type": "Point", "coordinates": [ 788763.55133356503211, 9235726.605754965916276 ] } }
]
}
